{
	"features": [{
		"id": "Sony Technology Center Inc",
		"properties": {
			"zip": 94303,
			"address": "1003 Elwell Court",
			"longitude": -122.104051,
			"latitude": 37.431571,
			"company": "Sony Technology Center Inc"
		},
		"type": "Feature",
		"geometry": {
			"type": "Point",
			"coordinates": [-122.104051, 37.431571]
		}
	}, {
		"id": "McDonnell Douglas Elect. Corp.",
		"properties": {
			"zip": 94303,
			"address": "1057 E. Meadow Circle",
			"longitude": -122.109471,
			"latitude": 37.431188,
			"company": "McDonnell Douglas Elect. Corp."
		},
		"type": "Feature",
		"geometry": {
			"type": "Point",
			"coordinates": [-122.109471, 37.431188]
		}
	}, {
		"id": "Corning A.C.I.",
		"properties": {
			"zip": 94303,
			"address": "490 San Antonio Road",
			"longitude": -122.104899,
			"latitude": 37.413212,
			"company": "Corning A.C.I."
		},
		"type": "Feature",
		"geometry": {
			"type": "Point",
			"coordinates": [-122.104899, 37.413212]
		}
	}, {
		"id": "Coherent Inc.",
		"properties": {
			"zip": 94303,
			"address": "3270 W. Bayshore Road",
			"longitude": -122.112178,
			"latitude": 37.438142,
			"company": "Coherent Inc."
		},
		"type": "Feature",
		"geometry": {
			"type": "Point",
			"coordinates": [-122.112178, 37.438142]
		}
	}, {
		"id": "Eastman Kodak Co.",
		"properties": {
			"zip": 94304,
			"address": "925 Page Mill Rd.",
			"longitude": -122.144927,
			"latitude": 37.419496,
			"company": "Eastman Kodak Co."
		},
		"type": "Feature",
		"geometry": {
			"type": "Point",
			"coordinates": [-122.144927, 37.419496]
		}
	}, {
		"id": "Beckman Instruments Inc.",
		"properties": {
			"zip": 94304,
			"address": "950 Page Mill Rd.",
			"longitude": -122.144941,
			"latitude": 37.419734,
			"company": "Beckman Instruments Inc."
		},
		"type": "Feature",
		"geometry": {
			"type": "Point",
			"coordinates": [-122.144941, 37.419734]
		}
	}, {
		"id": "Preformed Line Products Co.",
		"properties": {
			"zip": 94306,
			"address": "600 Hansen Way",
			"longitude": -122.138372,
			"latitude": 37.420489,
			"company": "Preformed Line Products Co."
		},
		"type": "Feature",
		"geometry": {
			"type": "Point",
			"coordinates": [-122.138372, 37.420489]
		}
	}, {
		"id": "Varian Associates",
		"properties": {
			"zip": 94304,
			"address": "601 California Ave.",
			"longitude": -122.146674,
			"latitude": 37.424066,
			"company": "Varian Associates"
		},
		"type": "Feature",
		"geometry": {
			"type": "Point",
			"coordinates": [-122.146674, 37.424066]
		}
	}, {
		"id": "Hewlett Packard",
		"properties": {
			"zip": 94304,
			"address": "395 Page Mill Rd.",
			"longitude": -122.13973,
			"latitude": 37.425661,
			"company": "Hewlett Packard"
		},
		"type": "Feature",
		"geometry": {
			"type": "Point",
			"coordinates": [-122.13973, 37.425661]
		}
	}, {
		"id": "Hewlett Packard",
		"properties": {
			"zip": 94304,
			"address": "640 Page Mill Rd.",
			"longitude": -122.143546,
			"latitude": 37.421408,
			"company": "Hewlett Packard"
		},
		"type": "Feature",
		"geometry": {
			"type": "Point",
			"coordinates": [-122.143546, 37.421408]
		}
	}, {
		"id": "Hewlett Packard",
		"properties": {
			"zip": 94301,
			"address": "901 California Ave.",
			"longitude": -122.131391,
			"latitude": 37.442744,
			"company": "Hewlett Packard"
		},
		"type": "Feature",
		"geometry": {
			"type": "Point",
			"coordinates": [-122.131391, 37.442744]
		}
	}, {
		"id": "Syva Co.",
		"properties": {
			"zip": 94306,
			"address": "900 Hansen Way",
			"longitude": -122.140259,
			"latitude": 37.418192,
			"company": "Syva Co."
		},
		"type": "Feature",
		"geometry": {
			"type": "Point",
			"coordinates": [-122.140259, 37.418192]
		}
	}, {
		"id": "Aydin Energy Division",
		"properties": {
			"zip": 94304,
			"address": "3180 Hanover St.",
			"longitude": -122.143352,
			"latitude": 37.415343,
			"company": "Aydin Energy Division"
		},
		"type": "Feature",
		"geometry": {
			"type": "Point",
			"coordinates": [-122.143352, 37.415343]
		}
	}, {
		"id": "Hewlett Packard",
		"properties": {
			"zip": 94304,
			"address": "1501 Page Mill Rd.",
			"longitude": -122.149615,
			"latitude": 37.413842,
			"company": "Hewlett Packard"
		},
		"type": "Feature",
		"geometry": {
			"type": "Point",
			"coordinates": [-122.149615, 37.413842]
		}
	}, {
		"id": "Hewlett Packard",
		"properties": {
			"zip": 94304,
			"address": "3000 Hanover St.",
			"longitude": -122.144814,
			"latitude": 37.416111,
			"company": "Hewlett Packard"
		},
		"type": "Feature",
		"geometry": {
			"type": "Point",
			"coordinates": [-122.144814, 37.416111]
		}
	}, {
		"id": "Hewlett Packard",
		"properties": {
			"zip": 94306,
			"address": "1601 California Ave.",
			"longitude": -122.152583,
			"latitude": 37.416988,
			"company": "Hewlett Packard"
		},
		"type": "Feature",
		"geometry": {
			"type": "Point",
			"coordinates": [-122.152583, 37.416988]
		}
	}, {
		"id": "TAB Products",
		"properties": {
			"zip": 94306,
			"address": "1451 California Ave.",
			"longitude": -122.151616,
			"latitude": 37.418106,
			"company": "TAB Products"
		},
		"type": "Feature",
		"geometry": {
			"type": "Point",
			"coordinates": [-122.151616, 37.418106]
		}
	}, {
		"id": "Xerox P.A.R.C.",
		"properties": {
			"zip": 94304,
			"address": "2500 Hanover St.",
			"longitude": -122.14963,
			"latitude": 37.418602,
			"company": "Xerox P.A.R.C."
		},
		"type": "Feature",
		"geometry": {
			"type": "Point",
			"coordinates": [-122.14963, 37.418602]
		}
	}, {
		"id": "IBM Corp.",
		"properties": {
			"zip": 94304,
			"address": "1550 Page Mill Rd.",
			"longitude": -122.14921,
			"latitude": 37.414567,
			"company": "IBM Corp."
		},
		"type": "Feature",
		"geometry": {
			"type": "Point",
			"coordinates": [-122.14921, 37.414567]
		}
	}, {
		"id": "IBM Corp.",
		"properties": {
			"zip": 94306,
			"address": "1501 California Ave.",
			"longitude": -122.151977,
			"latitude": 37.417686,
			"company": "IBM Corp."
		},
		"type": "Feature",
		"geometry": {
			"type": "Point",
			"coordinates": [-122.151977, 37.417686]
		}
	}, {
		"id": "Lockheed-Laboratory",
		"properties": {
			"zip": 94304,
			"address": "3251 Hanover St.",
			"longitude": -122.14481,
			"latitude": 37.411911,
			"company": "Lockheed-Laboratory"
		},
		"type": "Feature",
		"geometry": {
			"type": "Point",
			"coordinates": [-122.14481, 37.411911]
		}
	}, {
		"id": "Power Designs Pacifics Inc.",
		"properties": {
			"zip": 94304,
			"address": "3381 Miranda Ave.",
			"longitude": -122.146485,
			"latitude": 37.404744,
			"company": "Power Designs Pacifics Inc."
		},
		"type": "Feature",
		"geometry": {
			"type": "Point",
			"coordinates": [-122.146485, 37.404744]
		}
	}, {
		"id": "General Instrument Corp",
		"properties": {
			"zip": 94304,
			"address": "3400 Hillview Ave.",
			"longitude": -122.146002,
			"latitude": 37.403466,
			"company": "General Instrument Corp"
		},
		"type": "Feature",
		"geometry": {
			"type": "Point",
			"coordinates": [-122.146002, 37.403466]
		}
	}, {
		"id": "Fairchild",
		"properties": {
			"zip": 94304,
			"address": "3440 Hillview Ave.",
			"longitude": -122.143956,
			"latitude": 37.397349,
			"company": "Fairchild"
		},
		"type": "Feature",
		"geometry": {
			"type": "Point",
			"coordinates": [-122.143956, 37.397349]
		}
	}, {
		"id": "Fairchild",
		"properties": {
			"zip": 94304,
			"address": "4001 Miranda Ave.",
			"longitude": -122.139755,
			"latitude": 37.401638,
			"company": "Fairchild"
		},
		"type": "Feature",
		"geometry": {
			"type": "Point",
			"coordinates": [-122.139755, 37.401638]
		}
	}, {
		"id": "Hewlett Packard",
		"properties": {
			"zip": 94304,
			"address": "3495 Deer Creek Rd.",
			"longitude": -122.151332,
			"latitude": 37.396082,
			"company": "Hewlett Packard"
		},
		"type": "Feature",
		"geometry": {
			"type": "Point",
			"coordinates": [-122.151332, 37.396082]
		}
	}, {
		"id": "Hewlett Packard",
		"properties": {
			"zip": 94304,
			"address": "3500 Deer Creek Rd.",
			"longitude": -122.151621,
			"latitude": 37.39617,
			"company": "Hewlett Packard"
		},
		"type": "Feature",
		"geometry": {
			"type": "Point",
			"coordinates": [-122.151621, 37.39617]
		}
	}, {
		"id": "Xerox P.A.R.C.",
		"properties": {
			"zip": 94304,
			"address": "3333 Coyote Hill Rd.",
			"longitude": -122.150382,
			"latitude": 37.40226,
			"company": "Xerox P.A.R.C."
		},
		"type": "Feature",
		"geometry": {
			"type": "Point",
			"coordinates": [-122.150382, 37.40226]
		}
	}, {
		"id": "Perkin-Elmer",
		"properties": {
			"zip": 94043,
			"address": "2288 Charleston Rd.",
			"longitude": -122.095233,
			"latitude": 37.421481,
			"company": "Perkin-Elmer"
		},
		"type": "Feature",
		"geometry": {
			"type": "Point",
			"coordinates": [-122.095233, 37.421481]
		}
	}, {
		"id": "Bell Industries\u2026sion Metalcraft",
		"properties": {
			"zip": 94043,
			"address": "2637 Marine Way",
			"longitude": -122.098136,
			"latitude": 37.428882,
			"company": "Bell Industries\u2026sion Metalcraft"
		},
		"type": "Feature",
		"geometry": {
			"type": "Point",
			"coordinates": [-122.098136, 37.428882]
		}
	}, {
		"id": "Bell Industries",
		"properties": {
			"zip": 94043,
			"address": "2599 Garcia Ave.",
			"longitude": -122.094604,
			"latitude": 37.426447,
			"company": "Bell Industries"
		},
		"type": "Feature",
		"geometry": {
			"type": "Point",
			"coordinates": [-122.094604, 37.426447]
		}
	}, {
		"id": "Syntex Corp.",
		"properties": {
			"zip": 94043,
			"address": "2375 Charleston Rd.",
			"longitude": -122.096541,
			"latitude": 37.421556,
			"company": "Syntex Corp."
		},
		"type": "Feature",
		"geometry": {
			"type": "Point",
			"coordinates": [-122.096541, 37.421556]
		}
	}, {
		"id": "G.T.E. Fibre Optics",
		"properties": {
			"zip": 94043,
			"address": "1395 Charleston Rd.",
			"longitude": -122.077096,
			"latitude": 37.420443,
			"company": "G.T.E. Fibre Optics"
		},
		"type": "Feature",
		"geometry": {
			"type": "Point",
			"coordinates": [-122.077096, 37.420443]
		}
	}, {
		"id": "Syva",
		"properties": {
			"zip": 94043,
			"address": "1390 Shorebird Way",
			"longitude": -122.076944,
			"latitude": 37.418518,
			"company": "Syva"
		},
		"type": "Feature",
		"geometry": {
			"type": "Point",
			"coordinates": [-122.076944, 37.418518]
		}
	}, {
		"id": "Shigma Inc.",
		"properties": {
			"zip": 94043,
			"address": "1400 Stierlin Rd.",
			"longitude": -122.078119,
			"latitude": 37.40955,
			"company": "Shigma Inc."
		},
		"type": "Feature",
		"geometry": {
			"type": "Point",
			"coordinates": [-122.078119, 37.40955]
		}
	}, {
		"id": "T.R.W./Vidar Corp.",
		"properties": {
			"zip": 94040,
			"address": "77 Ortega Ave.",
			"longitude": -122.102613,
			"latitude": 37.403712,
			"company": "T.R.W./Vidar Corp."
		},
		"type": "Feature",
		"geometry": {
			"type": "Point",
			"coordinates": [-122.102613, 37.403712]
		}
	}, {
		"id": "Ask Computer Systems Inc.",
		"properties": {
			"zip": 94022,
			"address": "730 Distel Dr.",
			"longitude": -122.104203,
			"latitude": 37.394985,
			"company": "Ask Computer Systems Inc."
		},
		"type": "Feature",
		"geometry": {
			"type": "Point",
			"coordinates": [-122.104203, 37.394985]
		}
	}, {
		"id": "Spectra Physics Inc",
		"properties": {
			"zip": 94043,
			"address": "1250 W. Middlefield Rd.",
			"longitude": -122.079298,
			"latitude": 37.406946,
			"company": "Spectra Physics Inc"
		},
		"type": "Feature",
		"geometry": {
			"type": "Point",
			"coordinates": [-122.079298, 37.406946]
		}
	}, {
		"id": "Teledyne Semiconductor",
		"properties": {
			"zip": 94043,
			"address": "1300 Terra Bella Ave",
			"longitude": -122.080064,
			"latitude": 37.409456,
			"company": "Teledyne Semiconductor"
		},
		"type": "Feature",
		"geometry": {
			"type": "Point",
			"coordinates": [-122.080064, 37.409456]
		}
	}, {
		"id": "Abbott Labs",
		"properties": {
			"zip": 94043,
			"address": "1212 Terra Bella Ave",
			"longitude": -122.07898,
			"latitude": 37.408556,
			"company": "Abbott Labs"
		},
		"type": "Feature",
		"geometry": {
			"type": "Point",
			"coordinates": [-122.07898, 37.408556]
		}
	}, {
		"id": "Fairchild Camera \u0026 Instru.",
		"properties": {
			"zip": 94043,
			"address": "465 National Ave.",
			"longitude": -122.053348,
			"latitude": 37.401324,
			"company": "Fairchild Camera \u0026 Instru."
		},
		"type": "Feature",
		"geometry": {
			"type": "Point",
			"coordinates": [-122.0542, 37.4012]
		}
	}, {
		"id": "Siltec Corp.",
		"properties": {
			"zip": 94043,
			"address": "405 National Ave.",
			"longitude": -122.052194,
			"latitude": 37.40109,
			"company": "Siltec Corp."
		},
		"type": "Feature",
		"geometry": {
			"type": "Point",
			"coordinates": [-122.052194, 37.40109]
		}
	}, {
		"id": "Aydin Systems Div. Mfg.",
		"properties": {
			"zip": 94043,
			"address": "640 Clyde Ct.",
			"longitude": -122.049289,
			"latitude": 37.400633,
			"company": "Aydin Systems Div. Mfg."
		},
		"type": "Feature",
		"geometry": {
			"type": "Point",
			"coordinates": [-122.049289, 37.400633]
		}
	}, {
		"id": "Antekna Inc.",
		"properties": {
			"zip": 94043,
			"address": "625 Clyde Ct.",
			"longitude": -122.047279,
			"latitude": 37.400697,
			"company": "Antekna Inc."
		},
		"type": "Feature",
		"geometry": {
			"type": "Point",
			"coordinates": [-122.047279, 37.400697]
		}
	}, {
		"id": "Raytheon",
		"properties": {
			"zip": 94042,
			"address": "350 Ellis St.",
			"longitude": -122.07431,
			"latitude": 37.38802,
			"company": "Raytheon"
		},
		"type": "Feature",
		"geometry": {
			"type": "Point",
			"coordinates": [-122.07431, 37.38802]
		}
	}, {
		"id": "Raytheon",
		"properties": {
			"zip": 94043,
			"address": "415 E. Middlefield Rd.",
			"longitude": -122.056092,
			"latitude": 37.396411,
			"company": "Raytheon"
		},
		"type": "Feature",
		"geometry": {
			"type": "Point",
			"coordinates": [-122.056092, 37.396411]
		}
	}, {
		"id": "Electronic Arrays Inc.",
		"properties": {
			"zip": 94043,
			"address": "555 Ellis St.",
			"longitude": -122.05161,
			"latitude": 37.401636,
			"company": "Electronic Arrays Inc."
		},
		"type": "Feature",
		"geometry": {
			"type": "Point",
			"coordinates": [-122.05161, 37.401636]
		}
	}, {
		"id": "G.T.E. Sylvania",
		"properties": {
			"zip": 94043,
			"address": "685 E. Middlefield Rd.",
			"longitude": -122.051413,
			"latitude": 37.394029,
			"company": "G.T.E. Sylvania"
		},
		"type": "Feature",
		"geometry": {
			"type": "Point",
			"coordinates": [-122.051413, 37.394029]
		}
	}, {
		"id": "G.T.E. Sylvania",
		"properties": {
			"zip": 94043,
			"address": "100 Ferguson Dr.",
			"longitude": -122.057415,
			"latitude": 37.388228,
			"company": "G.T.E. Sylvania"
		},
		"type": "Feature",
		"geometry": {
			"type": "Point",
			"coordinates": [-122.057415, 37.388228]
		}
	}, {
		"id": "B.N.R. Inc.",
		"properties": {
			"zip": 94042,
			"address": "685 E. Middlefield Rd.",
			"longitude": -122.07431,
			"latitude": 37.38802,
			"company": "B.N.R. Inc."
		},
		"type": "Feature",
		"geometry": {
			"type": "Point",
			"coordinates": [-122.07431, 37.38802]
		}
	}, {
		"id": "Hewlett Packard Parts",
		"properties": {
			"zip": 94042,
			"address": "333 Logue Ave",
			"longitude": -122.07431,
			"latitude": 37.38802,
			"company": "Hewlett Packard Parts"
		},
		"type": "Feature",
		"geometry": {
			"type": "Point",
			"coordinates": [-122.07431, 37.38802]
		}
	}, {
		"id": "Becton Dickinson Elect. Labs",
		"properties": {
			"zip": 94043,
			"address": "506 Clyde Ave",
			"longitude": -122.046995,
			"latitude": 37.398432,
			"company": "Becton Dickinson Elect. Labs"
		},
		"type": "Feature",
		"geometry": {
			"type": "Point",
			"coordinates": [-122.046995, 37.398432]
		}
	}, {
		"id": "Seiko Circuits Inc.",
		"properties": {
			"zip": 94043,
			"address": "415 Clyde Ave",
			"longitude": -122.047132,
			"latitude": 37.39645,
			"company": "Seiko Circuits Inc."
		},
		"type": "Feature",
		"geometry": {
			"type": "Point",
			"coordinates": [-122.047132, 37.39645]
		}
	}, {
		"id": "Wavetek",
		"properties": {
			"zip": 94043,
			"address": "875 Maude Ave",
			"longitude": -122.048206,
			"latitude": 37.39597,
			"company": "Wavetek"
		},
		"type": "Feature",
		"geometry": {
			"type": "Point",
			"coordinates": [-122.048206, 37.39597]
		}
	}, {
		"id": "Consolidated Micrographics",
		"properties": {
			"zip": 94043,
			"address": "303 Ravendale Dr.",
			"longitude": -122.054595,
			"latitude": 37.388996,
			"company": "Consolidated Micrographics"
		},
		"type": "Feature",
		"geometry": {
			"type": "Point",
			"coordinates": [-122.054595, 37.388996]
		}
	}, {
		"id": "Varian Associates",
		"properties": {
			"zip": 94043,
			"address": "380 Bernardo Ave",
			"longitude": -122.050654,
			"latitude": 37.388785,
			"company": "Varian Associates"
		},
		"type": "Feature",
		"geometry": {
			"type": "Point",
			"coordinates": [-122.050654, 37.388785]
		}
	}, {
		"id": "Perkin-Elmer",
		"properties": {
			"zip": 94043,
			"address": "411 Clyde Ave",
			"longitude": -122.047161,
			"latitude": 37.396365,
			"company": "Perkin-Elmer"
		},
		"type": "Feature",
		"geometry": {
			"type": "Point",
			"coordinates": [-122.047161, 37.396365]
		}
	}, {
		"id": "Spectra Physics Inc",
		"properties": {
			"zip": 94043,
			"address": "575 E. Middlefield Rd.",
			"longitude": -122.052164,
			"latitude": 37.394789,
			"company": "Spectra Physics Inc"
		},
		"type": "Feature",
		"geometry": {
			"type": "Point",
			"coordinates": [-122.080231, 37.407929]
		}
	}, {
		"id": "Intel Corp.",
		"properties": {
			"zip": 94086,
			"address": "1302 N. Mathilda Ave.",
			"longitude": -122.025061,
			"latitude": 37.414585,
			"company": "Intel Corp."
		},
		"type": "Feature",
		"geometry": {
			"type": "Point",
			"coordinates": [-122.025061, 37.414585]
		}
	}, {
		"id": "Intel Corp.",
		"properties": {
			"zip": 94086,
			"address": "376 Caribbean Dr.",
			"longitude": -122.009773,
			"latitude": 37.415849,
			"company": "Intel Corp."
		},
		"type": "Feature",
		"geometry": {
			"type": "Point",
			"coordinates": [-122.009773, 37.415849]
		}
	}, {
		"id": "Intel Corp.",
		"properties": {
			"zip": 94086,
			"address": "1350 Bordeaux Dr.",
			"longitude": -122.02164,
			"latitude": 37.41534,
			"company": "Intel Corp."
		},
		"type": "Feature",
		"geometry": {
			"type": "Point",
			"coordinates": [-122.02164, 37.41534]
		}
	}, {
		"id": "Apple Computer",
		"properties": {
			"zip": 94086,
			"address": "1335 Bordeaux Dr.",
			"longitude": -122.021526,
			"latitude": 37.414713,
			"company": "Apple Computer"
		},
		"type": "Feature",
		"geometry": {
			"type": "Point",
			"coordinates": [-122.021526, 37.414713]
		}
	}, {
		"id": "Apple Computer",
		"properties": {
			"zip": 94086,
			"address": "232 Java Dr.",
			"longitude": -122.016605,
			"latitude": 37.411236,
			"company": "Apple Computer"
		},
		"type": "Feature",
		"geometry": {
			"type": "Point",
			"coordinates": [-122.016605, 37.411236]
		}
	}, {
		"id": "Diasonics",
		"properties": {
			"zip": 94086,
			"address": "1235 Bordeaux Dr.",
			"longitude": -122.022819,
			"latitude": 37.410801,
			"company": "Diasonics"
		},
		"type": "Feature",
		"geometry": {
			"type": "Point",
			"coordinates": [-122.022819, 37.410801]
		}
	}, {
		"id": "Control Data Corp.",
		"properties": {
			"zip": 94086,
			"address": "1330 Orleans Dr.",
			"longitude": -122.006847,
			"latitude": 37.411006,
			"company": "Control Data Corp."
		},
		"type": "Feature",
		"geometry": {
			"type": "Point",
			"coordinates": [-122.006847, 37.411006]
		}
	}, {
		"id": "Atari Inc.",
		"properties": {
			"zip": 94086,
			"address": "1272 Borregas Ave",
			"longitude": -122.018385,
			"latitude": 37.410451,
			"company": "Atari Inc."
		},
		"type": "Feature",
		"geometry": {
			"type": "Point",
			"coordinates": [-122.018385, 37.410451]
		}
	}, {
		"id": "Atari Inc.",
		"properties": {
			"zip": 94086,
			"address": "155 Moffett Park Dr.",
			"longitude": -122.023328,
			"latitude": 37.404068,
			"company": "Atari Inc."
		},
		"type": "Feature",
		"geometry": {
			"type": "Point",
			"coordinates": [-122.023328, 37.404068]
		}
	}, {
		"id": "Atari Inc.",
		"properties": {
			"zip": 94086,
			"address": "1183 Bordeaux Dr.",
			"longitude": -122.0236,
			"latitude": 37.408356,
			"company": "Atari Inc."
		},
		"type": "Feature",
		"geometry": {
			"type": "Point",
			"coordinates": [-122.0236, 37.408356]
		}
	}, {
		"id": "Atari Inc.",
		"properties": {
			"zip": 94086,
			"address": "1320 Bordeaux Dr.",
			"longitude": -122.021686,
			"latitude": 37.414143,
			"company": "Atari Inc."
		},
		"type": "Feature",
		"geometry": {
			"type": "Point",
			"coordinates": [-122.021686, 37.414143]
		}
	}, {
		"id": "Atari Inc.",
		"properties": {
			"zip": 94086,
			"address": "390 Caribbean Dr.",
			"longitude": -122.009314,
			"latitude": 37.41576,
			"company": "Atari Inc."
		},
		"type": "Feature",
		"geometry": {
			"type": "Point",
			"coordinates": [-122.009314, 37.41576]
		}
	}, {
		"id": "Atari Inc.",
		"properties": {
			"zip": 94086,
			"address": "1340 Bordeaux Dr.",
			"longitude": -122.021492,
			"latitude": 37.414956,
			"company": "Atari Inc."
		},
		"type": "Feature",
		"geometry": {
			"type": "Point",
			"coordinates": [-122.021492, 37.414956]
		}
	}, {
		"id": "Atari Inc.",
		"properties": {
			"zip": 94086,
			"address": "1383 Borregas Ave.",
			"longitude": -122.016557,
			"latitude": 37.416064,
			"company": "Atari Inc."
		},
		"type": "Feature",
		"geometry": {
			"type": "Point",
			"coordinates": [-122.016557, 37.416064]
		}
	}, {
		"id": "Atari Inc.",
		"properties": {
			"zip": 94086,
			"address": "275 Gibraltar Dr.",
			"longitude": -122.016363,
			"latitude": 37.409773,
			"company": "Atari Inc."
		},
		"type": "Feature",
		"geometry": {
			"type": "Point",
			"coordinates": [-122.016363, 37.409773]
		}
	}, {
		"id": "Atari Inc.",
		"properties": {
			"zip": 94086,
			"address": "1399 Moffett Park Dr.",
			"longitude": -122.00064,
			"latitude": 37.41183,
			"company": "Atari Inc."
		},
		"type": "Feature",
		"geometry": {
			"type": "Point",
			"coordinates": [-122.00064, 37.41183]
		}
	}, {
		"id": "Varian Associates",
		"properties": {
			"zip": 94086,
			"address": "220 Humboldt Ct.",
			"longitude": -122.018385,
			"latitude": 37.408159,
			"company": "Varian Associates"
		},
		"type": "Feature",
		"geometry": {
			"type": "Point",
			"coordinates": [-122.018385, 37.408159]
		}
	}, {
		"id": "Calma Company",
		"properties": {
			"zip": 94086,
			"address": "225 Humboldt Ct.",
			"longitude": -122.01828,
			"latitude": 37.408155,
			"company": "Calma Company"
		},
		"type": "Feature",
		"geometry": {
			"type": "Point",
			"coordinates": [-122.01828, 37.408155]
		}
	}, {
		"id": "Calma Company",
		"properties": {
			"zip": 94086,
			"address": "213 Gibraltar",
			"longitude": -122.018021,
			"latitude": 37.41013,
			"company": "Calma Company"
		},
		"type": "Feature",
		"geometry": {
			"type": "Point",
			"coordinates": [-122.018021, 37.41013]
		}
	}, {
		"id": "RGM Sys.",
		"properties": {
			"zip": 94086,
			"address": "1250 Borregas Ave.",
			"longitude": -122.018874,
			"latitude": 37.40903,
			"company": "RGM Sys."
		},
		"type": "Feature",
		"geometry": {
			"type": "Point",
			"coordinates": [-122.018874, 37.40903]
		}
	}, {
		"id": "National Advanced Systems",
		"properties": {
			"zip": 94086,
			"address": "140 Caribbean Dr.",
			"longitude": -122.017877,
			"latitude": 37.417186,
			"company": "National Advanced Systems"
		},
		"type": "Feature",
		"geometry": {
			"type": "Point",
			"coordinates": [-122.017877, 37.417186]
		}
	}, {
		"id": "Ford Aerospace \u2026mp; Comm. Corp.",
		"properties": {
			"zip": 94086,
			"address": "1260 Crossman Ave.",
			"longitude": -122.010381,
			"latitude": 37.410339,
			"company": "Ford Aerospace \u2026mp; Comm. Corp."
		},
		"type": "Feature",
		"geometry": {
			"type": "Point",
			"coordinates": [-122.010381, 37.410339]
		}
	}, {
		"id": "IBM Corp.",
		"properties": {
			"zip": 94086,
			"address": "1299 Orleans Ave.",
			"longitude": -122.023851,
			"latitude": 37.371042,
			"company": "IBM Corp."
		},
		"type": "Feature",
		"geometry": {
			"type": "Point",
			"coordinates": [-122.023851, 37.371042]
		}
	}, {
		"id": "General Elec. Co./Space Div.",
		"properties": {
			"zip": 94086,
			"address": "1277 Orleans Dr.",
			"longitude": -122.00728,
			"latitude": 37.409789,
			"company": "General Elec. Co./Space Div."
		},
		"type": "Feature",
		"geometry": {
			"type": "Point",
			"coordinates": [-122.00728, 37.409789]
		}
	}, {
		"id": "Honeywell Comm. Div.",
		"properties": {
			"zip": 94086,
			"address": "1130 Mt. View-Alviso Rd.",
			"longitude": -122.023851,
			"latitude": 37.371042,
			"company": "Honeywell Comm. Div."
		},
		"type": "Feature",
		"geometry": {
			"type": "Point",
			"coordinates": [-122.023851, 37.371042]
		}
	}, {
		"id": "Gould -- S.E.L. Computer Sys.",
		"properties": {
			"zip": 94086,
			"address": "1289 Anvilwood Ave.",
			"longitude": -121.993788,
			"latitude": 37.408698,
			"company": "Gould -- S.E.L. Computer Sys."
		},
		"type": "Feature",
		"geometry": {
			"type": "Point",
			"coordinates": [-121.993788, 37.408698]
		}
	}, {
		"id": "Interdesign Inc./Ferranti",
		"properties": {
			"zip": 94086,
			"address": "1255 Reamwood Ave.",
			"longitude": -121.988545,
			"latitude": 37.405668,
			"company": "Interdesign Inc./Ferranti"
		},
		"type": "Feature",
		"geometry": {
			"type": "Point",
			"coordinates": [-121.988545, 37.405668]
		}
	}, {
		"id": "Intersil Inc.",
		"properties": {
			"zip": 94086,
			"address": "1273 Hammerwood Ave.",
			"longitude": -121.990412,
			"latitude": 37.407927,
			"company": "Intersil Inc."
		},
		"type": "Feature",
		"geometry": {
			"type": "Point",
			"coordinates": [-121.990412, 37.407927]
		}
	}, {
		"id": "Solectron Corp.",
		"properties": {
			"zip": 94086,
			"address": "1286 Lawrence Stat. Rd.",
			"longitude": -121.996054,
			"latitude": 37.367105,
			"company": "Solectron Corp."
		},
		"type": "Feature",
		"geometry": {
			"type": "Point",
			"coordinates": [-121.996054, 37.367105]
		}
	}, {
		"id": "Atari Inc.",
		"properties": {
			"zip": 94086,
			"address": "1285 Forgewood Ave.",
			"longitude": -121.992,
			"latitude": 37.409528,
			"company": "Atari Inc."
		},
		"type": "Feature",
		"geometry": {
			"type": "Point",
			"coordinates": [-121.992, 37.409528]
		}
	}, {
		"id": "ACUREX CORP .",
		"properties": {
			"zip": 94086,
			"address": "485 CLYDE AVE.",
			"longitude": -122.046995,
			"latitude": 37.397956,
			"company": "ACUREX CORP ."
		},
		"type": "Feature",
		"geometry": {
			"type": "Point",
			"coordinates": [-122.046995, 37.397956]
		}
	}, {
		"id": "APPLIED TECH/ITEK",
		"properties": {
			"zip": 94086,
			"address": "525 ALMANOR AVE.",
			"longitude": -122.028853,
			"latitude": 37.396377,
			"company": "APPLIED TECH/ITEK"
		},
		"type": "Feature",
		"geometry": {
			"type": "Point",
			"coordinates": [-122.028853, 37.396377]
		}
	}, {
		"id": "GENERAL TECHNOLOGY CORP.",
		"properties": {
			"zip": 94086,
			"address": "1028 W. MAUDE AVE.",
			"longitude": -122.043315,
			"latitude": 37.393885,
			"company": "GENERAL TECHNOLOGY CORP."
		},
		"type": "Feature",
		"geometry": {
			"type": "Point",
			"coordinates": [-122.043315, 37.393885]
		}
	}, {
		"id": "SYSTEM DEVELOPMENT CORP .",
		"properties": {
			"zip": 94086,
			"address": "500 MACARA AVE.",
			"longitude": -122.04183,
			"latitude": 37.393589,
			"company": "SYSTEM DEVELOPMENT CORP ."
		},
		"type": "Feature",
		"geometry": {
			"type": "Point",
			"coordinates": [-122.04183, 37.393589]
		}
	}, {
		"id": "CANDELA ELECTRONICS",
		"properties": {
			"zip": 94086,
			"address": "550 DEL REY",
			"longitude": -122.023851,
			"latitude": 37.371042,
			"company": "CANDELA ELECTRONICS"
		},
		"type": "Feature",
		"geometry": {
			"type": "Point",
			"coordinates": [-122.023851, 37.371042]
		}
	}, {
		"id": "CALIF. MICROWAVE INC.",
		"properties": {
			"zip": 94086,
			"address": "760 N. MARY AVE.",
			"longitude": -122.035797,
			"latitude": 37.396597,
			"company": "CALIF. MICROWAVE INC."
		},
		"type": "Feature",
		"geometry": {
			"type": "Point",
			"coordinates": [-122.035797, 37.396597]
		}
	}, {
		"id": "ADDINGTON PROCESSING LAB",
		"properties": {
			"zip": 94086,
			"address": "680 W. MAUDE AVE.",
			"longitude": -122.033495,
			"latitude": 37.390654,
			"company": "ADDINGTON PROCESSING LAB"
		},
		"type": "Feature",
		"geometry": {
			"type": "Point",
			"coordinates": [-122.033495, 37.390654]
		}
	}, {
		"id": "NATIONAL SEMICONDCUTOR",
		"properties": {
			"zip": 94086,
			"address": "675 ALMANOR AVE .",
			"longitude": -122.032891,
			"latitude": 37.397703,
			"company": "NATIONAL SEMICONDCUTOR"
		},
		"type": "Feature",
		"geometry": {
			"type": "Point",
			"coordinates": [-122.032891, 37.397703]
		}
	}, {
		"id": "FERIX",
		"properties": {
			"zip": 94086,
			"address": "611 VAQUEROS AVE.",
			"longitude": -122.032129,
			"latitude": 37.39326,
			"company": "FERIX"
		},
		"type": "Feature",
		"geometry": {
			"type": "Point",
			"coordinates": [-122.032129, 37.39326]
		}
	}, {
		"id": "DATAPOINT PERIP\u2026AL PRODUCT INC.",
		"properties": {
			"zip": 94086,
			"address": "810 W. MAUDE AVE .",
			"longitude": -122.034615,
			"latitude": 37.391009,
			"company": "DATAPOINT PERIP\u2026AL PRODUCT INC."
		},
		"type": "Feature",
		"geometry": {
			"type": "Point",
			"coordinates": [-122.034615, 37.391009]
		}
	}, {
		"id": "AMPEX CORP.",
		"properties": {
			"zip": 94086,
			"address": "728 SAN ALESO AVE .",
			"longitude": -122.026872,
			"latitude": 37.396359,
			"company": "AMPEX CORP."
		},
		"type": "Feature",
		"geometry": {
			"type": "Point",
			"coordinates": [-122.026872, 37.396359]
		}
	}, {
		"id": "AMPEX CORP.",
		"properties": {
			"zip": 94086,
			"address": "465 W. MAUDE AVE.",
			"longitude": -122.031446,
			"latitude": 37.389991,
			"company": "AMPEX CORP."
		},
		"type": "Feature",
		"geometry": {
			"type": "Point",
			"coordinates": [-122.031446, 37.389991]
		}
	}, {
		"id": "AMPEX CORP .",
		"properties": {
			"zip": 94086,
			"address": "814 SAN ALESO DR.",
			"longitude": -122.023851,
			"latitude": 37.371042,
			"company": "AMPEX CORP ."
		},
		"type": "Feature",
		"geometry": {
			"type": "Point",
			"coordinates": [-122.023851, 37.371042]
		}
	}, {
		"id": "VEECO/MACRONETICS INC.",
		"properties": {
			"zip": 94086,
			"address": "585 N. MARY AVE.",
			"longitude": -122.03705,
			"latitude": 37.393009,
			"company": "VEECO/MACRONETICS INC."
		},
		"type": "Feature",
		"geometry": {
			"type": "Point",
			"coordinates": [-122.03705, 37.393009]
		}
	}, {
		"id": "SEIKO CIRCUITS INC.",
		"properties": {
			"zip": 94086,
			"address": "415 CLYDE AVE .",
			"longitude": -122.047132,
			"latitude": 37.39645,
			"company": "SEIKO CIRCUITS INC."
		},
		"type": "Feature",
		"geometry": {
			"type": "Point",
			"coordinates": [-122.047132, 37.39645]
		}
	}, {
		"id": "LYNCH CIRCUITS INC.",
		"properties": {
			"zip": 94086,
			"address": "41588 W. EVELYN AVE.",
			"longitude": -122.052359,
			"latitude": 37.38557,
			"company": "LYNCH CIRCUITS INC."
		},
		"type": "Feature",
		"geometry": {
			"type": "Point",
			"coordinates": [-122.052359, 37.38557]
		}
	}, {
		"id": "VERBATIM CORP.",
		"properties": {
			"zip": 94086,
			"address": "675 PALOMAR AVE.",
			"longitude": -122.034531,
			"latitude": 37.395045,
			"company": "VERBATIM CORP."
		},
		"type": "Feature",
		"geometry": {
			"type": "Point",
			"coordinates": [-122.034531, 37.395045]
		}
	}, {
		"id": "RACAL-VADIC INC.",
		"properties": {
			"zip": 94086,
			"address": "785 N. MARY AVE .",
			"longitude": -122.035577,
			"latitude": 37.397359,
			"company": "RACAL-VADIC INC."
		},
		"type": "Feature",
		"geometry": {
			"type": "Point",
			"coordinates": [-122.035577, 37.397359]
		}
	}, {
		"id": "SIGNETICS CORP.",
		"properties": {
			"zip": 94086,
			"address": "305 N. MATHILDA AVE.",
			"longitude": -122.031798,
			"latitude": 37.385089,
			"company": "SIGNETICS CORP."
		},
		"type": "Feature",
		"geometry": {
			"type": "Point",
			"coordinates": [-122.031798, 37.385089]
		}
	}, {
		"id": "GCA IC SYSTEMS",
		"properties": {
			"zip": 94086,
			"address": "720 PALOMAR AVE .",
			"longitude": -122.034233,
			"latitude": 37.395885,
			"company": "GCA IC SYSTEMS"
		},
		"type": "Feature",
		"geometry": {
			"type": "Point",
			"coordinates": [-122.034233, 37.395885]
		}
	}, {
		"id": "SIGNETICS CORP.",
		"properties": {
			"zip": 94086,
			"address": "450 N. WOLFE RD.",
			"longitude": -122.013567,
			"latitude": 37.383525,
			"company": "SIGNETICS CORP."
		},
		"type": "Feature",
		"geometry": {
			"type": "Point",
			"coordinates": [-122.013567, 37.383525]
		}
	}, {
		"id": "SIGNETICS CORP.",
		"properties": {
			"zip": 94086,
			"address": "860 KIFER RD.",
			"longitude": -122.010624,
			"latitude": 37.374593,
			"company": "SIGNETICS CORP."
		},
		"type": "Feature",
		"geometry": {
			"type": "Point",
			"coordinates": [-122.010624, 37.374593]
		}
	}, {
		"id": "SIGNETICS CORP.",
		"properties": {
			"zip": 94086,
			"address": "830 STEWART DR.",
			"longitude": -122.010732,
			"latitude": 37.383979,
			"company": "SIGNETICS CORP."
		},
		"type": "Feature",
		"geometry": {
			"type": "Point",
			"coordinates": [-122.010732, 37.383979]
		}
	}, {
		"id": "SIGNETICS CORP.",
		"properties": {
			"zip": 94086,
			"address": "897 DE GUIGNE DR.",
			"longitude": -122.007161,
			"latitude": 37.385487,
			"company": "SIGNETICS CORP."
		},
		"type": "Feature",
		"geometry": {
			"type": "Point",
			"coordinates": [-122.007161, 37.385487]
		}
	}, {
		"id": "SIGNETICS CORP.",
		"properties": {
			"zip": 94086,
			"address": "897 STEWART DR.",
			"longitude": -122.006398,
			"latitude": 37.383951,
			"company": "SIGNETICS CORP."
		},
		"type": "Feature",
		"geometry": {
			"type": "Point",
			"coordinates": [-122.006398, 37.383951]
		}
	}, {
		"id": "SIGNETICS CORP.",
		"properties": {
			"zip": 94086,
			"address": "730 E. EVELYN AVE.",
			"longitude": -122.016596,
			"latitude": 37.371681,
			"company": "SIGNETICS CORP."
		},
		"type": "Feature",
		"geometry": {
			"type": "Point",
			"coordinates": [-122.010745, 37.38215]
		}
	}, {
		"id": "TANDEM COMPUTERS INC.",
		"properties": {
			"zip": 94086,
			"address": "1366 SANTA ANA CT.",
			"longitude": -122.023851,
			"latitude": 37.371042,
			"company": "TANDEM COMPUTERS INC."
		},
		"type": "Feature",
		"geometry": {
			"type": "Point",
			"coordinates": [-122.023851, 37.371042]
		}
	}, {
		"id": "TANDEM COMPUTERS INC.",
		"properties": {
			"zip": 94086,
			"address": "245 SANTA ANA CT.",
			"longitude": -122.010541,
			"latitude": 37.379708,
			"company": "TANDEM COMPUTERS INC."
		},
		"type": "Feature",
		"geometry": {
			"type": "Point",
			"coordinates": [-122.010541, 37.379708]
		}
	}, {
		"id": "INMAC",
		"properties": {
			"zip": 94086,
			"address": "130 S. WOLFE RD.",
			"longitude": -122.012022,
			"latitude": 37.370447,
			"company": "INMAC"
		},
		"type": "Feature",
		"geometry": {
			"type": "Point",
			"coordinates": [-122.012022, 37.370447]
		}
	}, {
		"id": "CPS INC.",
		"properties": {
			"zip": 94086,
			"address": "110 WOLFE RD .",
			"longitude": -122.013809,
			"latitude": 37.375565,
			"company": "CPS INC."
		},
		"type": "Feature",
		"geometry": {
			"type": "Point",
			"coordinates": [-122.013809, 37.375565]
		}
	}, {
		"id": "POLY MOLD TOOL \u0026 ENGR.",
		"properties": {
			"zip": 94086,
			"address": "193 COMMERCIAL ST.",
			"longitude": -122.008472,
			"latitude": 37.376027,
			"company": "POLY MOLD TOOL \u0026 ENGR."
		},
		"type": "Feature",
		"geometry": {
			"type": "Point",
			"coordinates": [-122.008472, 37.376027]
		}
	}, {
		"id": "GENERAL ELECTRIC CO.",
		"properties": {
			"zip": 94086,
			"address": "310 DE GUIGNE DR.",
			"longitude": -122.007233,
			"latitude": 37.381184,
			"company": "GENERAL ELECTRIC CO."
		},
		"type": "Feature",
		"geometry": {
			"type": "Point",
			"coordinates": [-122.007233, 37.381184]
		}
	}, {
		"id": "HEWLETT PACKARD-DTD",
		"properties": {
			"zip": 94086,
			"address": "974 E. ARQUES AVE.",
			"longitude": -122.004718,
			"latitude": 37.380738,
			"company": "HEWLETT PACKARD-DTD"
		},
		"type": "Feature",
		"geometry": {
			"type": "Point",
			"coordinates": [-122.004718, 37.380738]
		}
	}, {
		"id": "ADVANCED MICRO DEVICES INC.",
		"properties": {
			"zip": 94086,
			"address": "898 STEWART DR.",
			"longitude": -122.006408,
			"latitude": 37.383935,
			"company": "ADVANCED MICRO DEVICES INC."
		},
		"type": "Feature",
		"geometry": {
			"type": "Point",
			"coordinates": [-122.0066, 37.3868]
		}
	}, {
		"id": "ADVANCED MICRO DEVICES INC.",
		"properties": {
			"zip": 94086,
			"address": "9 15 DE GUIGNE DR .",
			"longitude": -122.023851,
			"latitude": 37.371042,
			"company": "ADVANCED MICRO DEVICES INC."
		},
		"type": "Feature",
		"geometry": {
			"type": "Point",
			"coordinates": [-122.0086, 37.3825]
		}
	}, {
		"id": "AERTECH INDUSTRIES",
		"properties": {
			"zip": 94086,
			"address": "970 STEWART DR .",
			"longitude": -122.002998,
			"latitude": 37.383925,
			"company": "AERTECH INDUSTRIES"
		},
		"type": "Feature",
		"geometry": {
			"type": "Point",
			"coordinates": [-122.002998, 37.383925]
		}
	}, {
		"id": "AERTECH INDUSTRIES",
		"properties": {
			"zip": 94086,
			"address": "455 DE GUIGNE DR.",
			"longitude": -122.007206,
			"latitude": 37.383245,
			"company": "AERTECH INDUSTRIES"
		},
		"type": "Feature",
		"geometry": {
			"type": "Point",
			"coordinates": [-122.007206, 37.383245]
		}
	}, {
		"id": "GTE PRODUCTS",
		"properties": {
			"zip": 94086,
			"address": "1180 KERN AVE.",
			"longitude": -121.997474,
			"latitude": 37.382579,
			"company": "GTE PRODUCTS"
		},
		"type": "Feature",
		"geometry": {
			"type": "Point",
			"coordinates": [-121.997474, 37.382579]
		}
	}, {
		"id": "SINGER CO. / LINK DIV.",
		"properties": {
			"zip": 94086,
			"address": "1077 E . ARQUES AVE.",
			"longitude": -122.002266,
			"latitude": 37.380513,
			"company": "SINGER CO. / LINK DIV."
		},
		"type": "Feature",
		"geometry": {
			"type": "Point",
			"coordinates": [-122.002266, 37.380513]
		}
	}, {
		"id": "T.R.W. SYSTEMS",
		"properties": {
			"zip": 94086,
			"address": "11-1 5 E. ARQUES AVE.",
			"longitude": -122.023851,
			"latitude": 37.371042,
			"company": "T.R.W. SYSTEMS"
		},
		"type": "Feature",
		"geometry": {
			"type": "Point",
			"coordinates": [-122.023851, 37.371042]
		}
	}, {
		"id": "MONOLITHIC MEMORIES",
		"properties": {
			"zip": 94086,
			"address": "1165 ARQUES AVE.",
			"longitude": -121.997864,
			"latitude": 37.380498,
			"company": "MONOLITHIC MEMORIES"
		},
		"type": "Feature",
		"geometry": {
			"type": "Point",
			"coordinates": [-121.997465, 37.381146]
		}
	}, {
		"id": "CHEMICAL SYS.",
		"properties": {
			"zip": 94086,
			"address": "1050 E. ARQUES AVE.",
			"longitude": -122.000417,
			"latitude": 37.380482,
			"company": "CHEMICAL SYS."
		},
		"type": "Feature",
		"geometry": {
			"type": "Point",
			"coordinates": [-122.000417, 37.380482]
		}
	}, {
		"id": "NATIONAL SEMICONDCUTOR",
		"properties": {
			"zip": 94086,
			"address": "1125 KIFER RD .",
			"longitude": -121.999847,
			"latitude": 37.373904,
			"company": "NATIONAL SEMICONDCUTOR"
		},
		"type": "Feature",
		"geometry": {
			"type": "Point",
			"coordinates": [-122.001707, 37.375568]
		}
	}, {
		"id": "NATIONAL SEMICONDCUTOR",
		"properties": {
			"zip": 94086,
			"address": "1177 KERN AVE .",
			"longitude": -121.997594,
			"latitude": 37.382591,
			"company": "NATIONAL SEMICONDCUTOR"
		},
		"type": "Feature",
		"geometry": {
			"type": "Point",
			"coordinates": [-121.997594, 37.382591]
		}
	}, {
		"id": "GCA IC SYSTEMS",
		"properties": {
			"zip": 94086,
			"address": "1050 KIFER RD.",
			"longitude": -122.002629,
			"latitude": 37.373871,
			"company": "GCA IC SYSTEMS"
		},
		"type": "Feature",
		"geometry": {
			"type": "Point",
			"coordinates": [-122.002629, 37.373871]
		}
	}, {
		"id": "NATL. SEMICONDUCTOR/TRANSDUCER",
		"properties": {
			"zip": 94086,
			"address": "1050 DUANE AVE.",
			"longitude": -121.952363,
			"latitude": 37.378557,
			"company": "NATL. SEMICONDUCTOR/TRANSDUCER"
		},
		"type": "Feature",
		"geometry": {
			"type": "Point",
			"coordinates": [-121.952363, 37.378557]
		}
	}, {
		"id": "APPLIED TECH/ITEK",
		"properties": {
			"zip": 94086,
			"address": "750 ARQUES AVE .",
			"longitude": -122.013356,
			"latitude": 37.380978,
			"company": "APPLIED TECH/ITEK"
		},
		"type": "Feature",
		"geometry": {
			"type": "Point",
			"coordinates": [-122.013356, 37.380978]
		}
	}, {
		"id": "EATON CORP. / MACRODATA",
		"properties": {
			"zip": 94086,
			"address": "1115 ARQUES AVE.",
			"longitude": -121.999848,
			"latitude": 37.380498,
			"company": "EATON CORP. / MACRODATA"
		},
		"type": "Feature",
		"geometry": {
			"type": "Point",
			"coordinates": [-121.999848, 37.380498]
		}
	}, {
		"id": "TOSHIBA SEMICONDUCTOR USA INC.",
		"properties": {
			"zip": 94086,
			"address": "1220 MIDWAS WAY",
			"longitude": -122.023851,
			"latitude": 37.371042,
			"company": "TOSHIBA SEMICONDUCTOR USA INC."
		},
		"type": "Feature",
		"geometry": {
			"type": "Point",
			"coordinates": [-122.023851, 37.371042]
		}
	}, {
		"id": "BECTON DICKINSON FACS SYSTEMS",
		"properties": {
			"zip": 94086,
			"address": "470 LAKESIDE DR.",
			"longitude": -121.993368,
			"latitude": 37.382649,
			"company": "BECTON DICKINSON FACS SYSTEMS"
		},
		"type": "Feature",
		"geometry": {
			"type": "Point",
			"coordinates": [-121.993368, 37.382649]
		}
	}, {
		"id": "N.C.A. CORP.",
		"properties": {
			"zip": 94086,
			"address": "1263 OAKMEAD PARKWAY",
			"longitude": -121.991082,
			"latitude": 37.386878,
			"company": "N.C.A. CORP."
		},
		"type": "Feature",
		"geometry": {
			"type": "Point",
			"coordinates": [-121.991082, 37.386878]
		}
	}, {
		"id": "CALMA COMPANY",
		"properties": {
			"zip": 94086,
			"address": "527 LAKESIDE DR.",
			"longitude": -121.993367,
			"latitude": 37.385005,
			"company": "CALMA COMPANY"
		},
		"type": "Feature",
		"geometry": {
			"type": "Point",
			"coordinates": [-121.993367, 37.385005]
		}
	}, {
		"id": "T.R.W. SYSTEMS",
		"properties": {
			"zip": 94086,
			"address": "460 OAKMEAD PARKWAY",
			"longitude": -121.988075,
			"latitude": 37.382599,
			"company": "T.R.W. SYSTEMS"
		},
		"type": "Feature",
		"geometry": {
			"type": "Point",
			"coordinates": [-121.988075, 37.382599]
		}
	}, {
		"id": "TYMSHARE INC.",
		"properties": {
			"zip": 95014,
			"address": "10101 BUBB RD.",
			"longitude": -122.051182,
			"latitude": 37.321501,
			"company": "TYMSHARE INC."
		},
		"type": "Feature",
		"geometry": {
			"type": "Point",
			"coordinates": [-122.051182, 37.321501]
		}
	}, {
		"id": "APPLE COMPUTER INC.",
		"properties": {
			"zip": 95014,
			"address": "10260 BUBB RD.",
			"longitude": -122.049987,
			"latitude": 37.318845,
			"company": "APPLE COMPUTER INC."
		},
		"type": "Feature",
		"geometry": {
			"type": "Point",
			"coordinates": [-122.049987, 37.318845]
		}
	}, {
		"id": "DATA QUEST INC.",
		"properties": {
			"zip": 95014,
			"address": "10340 BUBB RD.",
			"longitude": -122.049522,
			"latitude": 37.317594,
			"company": "DATA QUEST INC."
		},
		"type": "Feature",
		"geometry": {
			"type": "Point",
			"coordinates": [-122.049522, 37.317594]
		}
	}, {
		"id": "SANDPIPER",
		"properties": {
			"zip": 95014,
			"address": "21255 STEVENS CREEK BLVD",
			"longitude": -122.046197,
			"latitude": 37.322948,
			"company": "SANDPIPER"
		},
		"type": "Feature",
		"geometry": {
			"type": "Point",
			"coordinates": [-122.046197, 37.322948]
		}
	}, {
		"id": "APPLE COMPUTER INC .",
		"properties": {
			"zip": 95014,
			"address": "10260 BANDLEY DR.",
			"longitude": -122.03432,
			"latitude": 37.327437,
			"company": "APPLE COMPUTER INC ."
		},
		"type": "Feature",
		"geometry": {
			"type": "Point",
			"coordinates": [-122.03432, 37.327437]
		}
	}, {
		"id": "FOUR-PHASE SYSTEMS I NC.",
		"properties": {
			"zip": 95014,
			"address": "10500 N. De ANZA BLVD.",
			"longitude": -122.032192,
			"latitude": 37.328867,
			"company": "FOUR-PHASE SYSTEMS I NC."
		},
		"type": "Feature",
		"geometry": {
			"type": "Point",
			"coordinates": [-122.032192, 37.328867]
		}
	}, {
		"id": "SYVA CO.",
		"properties": {
			"zip": 95014,
			"address": "20400 MARIANI AVE.",
			"longitude": -122.029122,
			"latitude": 37.330532,
			"company": "SYVA CO."
		},
		"type": "Feature",
		"geometry": {
			"type": "Point",
			"coordinates": [-122.029122, 37.330532]
		}
	}, {
		"id": "HEWLETT PACKARD",
		"properties": {
			"zip": 95014,
			"address": "11000 WOLFE RD.",
			"longitude": -122.014161,
			"latitude": 37.335921,
			"company": "HEWLETT PACKARD"
		},
		"type": "Feature",
		"geometry": {
			"type": "Point",
			"coordinates": [-122.014161, 37.335921]
		}
	}, {
		"id": "HEWLETT PACKARD",
		"properties": {
			"zip": 95014,
			"address": "19410 HOMESTEAD RD.",
			"longitude": -122.011692,
			"latitude": 37.3377,
			"company": "HEWLETT PACKARD"
		},
		"type": "Feature",
		"geometry": {
			"type": "Point",
			"coordinates": [-122.011692, 37.3377]
		}
	}, {
		"id": "HEWLETT PACKARD",
		"properties": {
			"zip": 95014,
			"address": "19447 PRUNERIDGE AVE.",
			"longitude": -122.012036,
			"latitude": 37.333493,
			"company": "HEWLETT PACKARD"
		},
		"type": "Feature",
		"geometry": {
			"type": "Point",
			"coordinates": [-122.012036, 37.333493]
		}
	}, {
		"id": "HEWLETT PACKARD",
		"properties": {
			"zip": 95014,
			"address": "19310 PRUNERIDGE AVE.",
			"longitude": -122.010639,
			"latitude": 37.332514,
			"company": "HEWLETT PACKARD"
		},
		"type": "Feature",
		"geometry": {
			"type": "Point",
			"coordinates": [-122.010639, 37.332514]
		}
	}, {
		"id": "AMI",
		"properties": {
			"zip": 95014,
			"address": "19050 PRUNERIDGE AVE.",
			"longitude": -122.006211,
			"latitude": 37.332227,
			"company": "AMI"
		},
		"type": "Feature",
		"geometry": {
			"type": "Point",
			"coordinates": [-122.006211, 37.332227]
		}
	}, {
		"id": "MEMOREX CORP.",
		"properties": {
			"zip": 95014,
			"address": "18922 FORGE DR.",
			"longitude": -122.003261,
			"latitude": 37.335852,
			"company": "MEMOREX CORP."
		},
		"type": "Feature",
		"geometry": {
			"type": "Point",
			"coordinates": [-122.003261, 37.335852]
		}
	}, {
		"id": "ISS SPERRY UNIVAC",
		"properties": {
			"zip": 95014,
			"address": "10501 N. TANTAU AVE.",
			"longitude": -122.005853,
			"latitude": 37.329832,
			"company": "ISS SPERRY UNIVAC"
		},
		"type": "Feature",
		"geometry": {
			"type": "Point",
			"coordinates": [-122.005853, 37.329832]
		}
	}, {
		"id": "AMPEX CORP.",
		"properties": {
			"zip": 95014,
			"address": "10435 N. TANTAU AVE.",
			"longitude": -122.005863,
			"latitude": 37.328925,
			"company": "AMPEX CORP."
		},
		"type": "Feature",
		"geometry": {
			"type": "Point",
			"coordinates": [-122.005863, 37.328925]
		}
	}, {
		"id": "TANDEM COMPUTERS INC.",
		"properties": {
			"zip": 95014,
			"address": "10300 TANTAU AVE.",
			"longitude": -122.006288,
			"latitude": 37.326166,
			"company": "TANDEM COMPUTERS INC."
		},
		"type": "Feature",
		"geometry": {
			"type": "Point",
			"coordinates": [-122.006288, 37.326166]
		}
	}, {
		"id": "TANDEM COMPUTERS INC.",
		"properties": {
			"zip": 95014,
			"address": "19250 PRUNERIDGE AVE.",
			"longitude": -122.009469,
			"latitude": 37.331911,
			"company": "TANDEM COMPUTERS INC."
		},
		"type": "Feature",
		"geometry": {
			"type": "Point",
			"coordinates": [-122.009469, 37.331911]
		}
	}, {
		"id": "MOTHER LODE",
		"properties": {
			"zip": 95014,
			"address": "155 MILLER AVE.",
			"longitude": -122.013349,
			"latitude": 37.31422,
			"company": "MOTHER LODE"
		},
		"type": "Feature",
		"geometry": {
			"type": "Point",
			"coordinates": [-122.013349, 37.31422]
		}
	}, {
		"id": "TEXAS INSTRUMENTS",
		"properties": {
			"zip": 95014,
			"address": "5353 BETSY ROSS DR.",
			"longitude": -121.982001,
			"latitude": 37.408225,
			"company": "TEXAS INSTRUMENTS"
		},
		"type": "Feature",
		"geometry": {
			"type": "Point",
			"coordinates": [-121.982001, 37.408225]
		}
	}, {
		"id": "TRIAD SYSTEMS CORP.",
		"properties": {
			"zip": 95014,
			"address": "5403 BETSY ROSS DR.",
			"longitude": -121.982004,
			"latitude": 37.408885,
			"company": "TRIAD SYSTEMS CORP."
		},
		"type": "Feature",
		"geometry": {
			"type": "Point",
			"coordinates": [-121.982004, 37.408885]
		}
	}, {
		"id": "TEKTRONIX INC.",
		"properties": {
			"zip": 95014,
			"address": "3003 BUNKER HILL LN.",
			"longitude": -121.982279,
			"latitude": 37.405716,
			"company": "TEKTRONIX INC."
		},
		"type": "Feature",
		"geometry": {
			"type": "Point",
			"coordinates": [-121.982279, 37.405716]
		}
	}, {
		"id": "ARTELONICS",
		"properties": {
			"zip": 95014,
			"address": "2952 BUNKER HILL LN.",
			"longitude": -121.980423,
			"latitude": 37.405685,
			"company": "ARTELONICS"
		},
		"type": "Feature",
		"geometry": {
			"type": "Point",
			"coordinates": [-121.980423, 37.405685]
		}
	}, {
		"id": "SOLECTRON CORP.",
		"properties": {
			"zip": 95014,
			"address": "4598 PATRICK HENRY DR .",
			"longitude": -121.985015,
			"latitude": 37.397887,
			"company": "SOLECTRON CORP."
		},
		"type": "Feature",
		"geometry": {
			"type": "Point",
			"coordinates": [-121.985015, 37.397887]
		}
	}, {
		"id": "VARIAN - MICROWAVE COMP. DIV.",
		"properties": {
			"zip": 95014,
			"address": "3200 PATRICK HENRY DR.",
			"longitude": -121.982957,
			"latitude": 37.395904,
			"company": "VARIAN - MICROWAVE COMP. DIV."
		},
		"type": "Feature",
		"geometry": {
			"type": "Point",
			"coordinates": [-121.982957, 37.395904]
		}
	}, {
		"id": "XIDEX CORP.",
		"properties": {
			"zip": 95014,
			"address": "3000 PATRICK HENRY DR.",
			"longitude": -121.980082,
			"latitude": 37.395928,
			"company": "XIDEX CORP."
		},
		"type": "Feature",
		"geometry": {
			"type": "Point",
			"coordinates": [-121.980082, 37.395928]
		}
	}, {
		"id": "GOULD INC/BIOMATION DIV.",
		"properties": {
			"zip": 95014,
			"address": "4600 OLD IRONSIDES DR .",
			"longitude": -121.979537,
			"latitude": 37.396334,
			"company": "GOULD INC/BIOMATION DIV."
		},
		"type": "Feature",
		"geometry": {
			"type": "Point",
			"coordinates": [-121.979537, 37.396334]
		}
	}, {
		"id": "RAYTHEON",
		"properties": {
			"zip": 95050,
			"address": "2540 MISSION COLLEGE BLV.",
			"longitude": -121.935679,
			"latitude": 37.34357,
			"company": "RAYTHEON"
		},
		"type": "Feature",
		"geometry": {
			"type": "Point",
			"coordinates": [-122.054439, 37.397311]
		}
	}, {
		"id": "APPLICON INC.",
		"properties": {
			"zip": 95050,
			"address": "2540 MISSION COLLEGE BLV.",
			"longitude": -121.935679,
			"latitude": 37.34357,
			"company": "APPLICON INC."
		},
		"type": "Feature",
		"geometry": {
			"type": "Point",
			"coordinates": [-121.935679, 37.34357]
		}
	}, {
		"id": "EXXON OFFICE SYSTEMS",
		"properties": {
			"zip": 95054,
			"address": "3960 FREEDOM CIRCLE",
			"longitude": -121.972124,
			"latitude": 37.386085,
			"company": "EXXON OFFICE SYSTEMS"
		},
		"type": "Feature",
		"geometry": {
			"type": "Point",
			"coordinates": [-121.972124, 37.386085]
		}
	}, {
		"id": "NORTHERN TELECOM INC.",
		"properties": {
			"zip": 95050,
			"address": "2305 MISSION COLLEGE BLV.",
			"longitude": -121.935679,
			"latitude": 37.34357,
			"company": "NORTHERN TELECOM INC."
		},
		"type": "Feature",
		"geometry": {
			"type": "Point",
			"coordinates": [-121.935679, 37.34357]
		}
	}, {
		"id": "NORTHERN TELECOM INC.",
		"properties": {
			"zip": 95050,
			"address": "4101 BURTON DR.",
			"longitude": -121.961979,
			"latitude": 37.391322,
			"company": "NORTHERN TELECOM INC."
		},
		"type": "Feature",
		"geometry": {
			"type": "Point",
			"coordinates": [-121.961979, 37.391322]
		}
	}, {
		"id": "MEMORY DISC MFG.",
		"properties": {
			"zip": 95050,
			"address": "4255 BURTON DR.",
			"longitude": -121.96275,
			"latitude": 37.389867,
			"company": "MEMORY DISC MFG."
		},
		"type": "Feature",
		"geometry": {
			"type": "Point",
			"coordinates": [-121.96275, 37.389867]
		}
	}, {
		"id": "MEGATEST INC.",
		"properties": {
			"zip": 95054,
			"address": "3940 FREEDOM CIRCLE",
			"longitude": -121.97068,
			"latitude": 37.38597,
			"company": "MEGATEST INC."
		},
		"type": "Feature",
		"geometry": {
			"type": "Point",
			"coordinates": [-121.97068, 37.38597]
		}
	}, {
		"id": "INTEL CORP .",
		"properties": {
			"zip": 95050,
			"address": "3601 JULIETTE LN.",
			"longitude": -121.964529,
			"latitude": 37.384467,
			"company": "INTEL CORP ."
		},
		"type": "Feature",
		"geometry": {
			"type": "Point",
			"coordinates": [-121.964529, 37.384467]
		}
	}, {
		"id": "FISHER SWITCHES INC.",
		"properties": {
			"zip": 95050,
			"address": "3381 EDWARD AVE.",
			"longitude": -121.941609,
			"latitude": 37.385874,
			"company": "FISHER SWITCHES INC."
		},
		"type": "Feature",
		"geometry": {
			"type": "Point",
			"coordinates": [-121.941609, 37.385874]
		}
	}, {
		"id": "DIETZGEN",
		"properties": {
			"zip": 95050,
			"address": "3185 DE LaCRUZ BLVD.",
			"longitude": -121.940942,
			"latitude": 37.381489,
			"company": "DIETZGEN"
		},
		"type": "Feature",
		"geometry": {
			"type": "Point",
			"coordinates": [-121.940942, 37.381489]
		}
	}, {
		"id": "GCA CORP.",
		"properties": {
			"zip": 95051,
			"address": "3570 RYDER ST.",
			"longitude": -121.994859,
			"latitude": 37.376342,
			"company": "GCA CORP."
		},
		"type": "Feature",
		"geometry": {
			"type": "Point",
			"coordinates": [-121.994859, 37.376342]
		}
	}, {
		"id": "ZYCON CORP .",
		"properties": {
			"zip": 95051,
			"address": "3445 KIFER RD.",
			"longitude": -121.99106,
			"latitude": 37.374004,
			"company": "ZYCON CORP ."
		},
		"type": "Feature",
		"geometry": {
			"type": "Point",
			"coordinates": [-121.99106, 37.374004]
		}
	}, {
		"id": "FAIRCHILD-MICROPROCESSOR DIV.",
		"properties": {
			"zip": 95051,
			"address": "3420 CENTRAL EXP.",
			"longitude": -121.991825,
			"latitude": 37.377572,
			"company": "FAIRCHILD-MICROPROCESSOR DIV."
		},
		"type": "Feature",
		"geometry": {
			"type": "Point",
			"coordinates": [-121.991825, 37.377572]
		}
	}, {
		"id": "HEWLETT PACKARD-SMC",
		"properties": {
			"zip": 95051,
			"address": "3410 CENTRAL EXP.",
			"longitude": -121.991543,
			"latitude": 37.377572,
			"company": "HEWLETT PACKARD-SMC"
		},
		"type": "Feature",
		"geometry": {
			"type": "Point",
			"coordinates": [-121.991543, 37.377572]
		}
	}, {
		"id": "HEWLETT PACKARD",
		"properties": {
			"zip": 95051,
			"address": "1330 KIFER RD.",
			"longitude": -121.977829,
			"latitude": 37.37412,
			"company": "HEWLETT PACKARD"
		},
		"type": "Feature",
		"geometry": {
			"type": "Point",
			"coordinates": [-121.977829, 37.37412]
		}
	}, {
		"id": "STC-COMPUTER RESEARCH",
		"properties": {
			"zip": 95051,
			"address": "3450 CENTRAL EXP.",
			"longitude": -121.992671,
			"latitude": 37.377572,
			"company": "STC-COMPUTER RESEARCH"
		},
		"type": "Feature",
		"geometry": {
			"type": "Point",
			"coordinates": [-121.992671, 37.377572]
		}
	}, {
		"id": "STORM PRODUCTS",
		"properties": {
			"zip": 95051,
			"address": "3031 CORVIN DR.",
			"longitude": -121.987857,
			"latitude": 37.376258,
			"company": "STORM PRODUCTS"
		},
		"type": "Feature",
		"geometry": {
			"type": "Point",
			"coordinates": [-121.987857, 37.376258]
		}
	}, {
		"id": "APPLIED MATERIALS INC.",
		"properties": {
			"zip": 95051,
			"address": "3001 OAKMEAD VILLAGE DR.",
			"longitude": -121.980423,
			"latitude": 37.375959,
			"company": "APPLIED MATERIALS INC."
		},
		"type": "Feature",
		"geometry": {
			"type": "Point",
			"coordinates": [-121.980423, 37.375959]
		}
	}, {
		"id": "APPLIED MATERIALS INC .",
		"properties": {
			"zip": 95051,
			"address": "3400 CENTRAL EXP.",
			"longitude": -121.991261,
			"latitude": 37.377572,
			"company": "APPLIED MATERIALS INC ."
		},
		"type": "Feature",
		"geometry": {
			"type": "Point",
			"coordinates": [-121.991261, 37.377572]
		}
	}, {
		"id": "APPLIED MATERIALS INC.",
		"properties": {
			"zip": 95051,
			"address": "2940 KIFER RD.",
			"longitude": -121.981225,
			"latitude": 37.374089,
			"company": "APPLIED MATERIALS INC."
		},
		"type": "Feature",
		"geometry": {
			"type": "Point",
			"coordinates": [-121.981225, 37.374089]
		}
	}, {
		"id": "COMMODORE company MACHINES",
		"properties": {
			"zip": 95051,
			"address": "3330 SCOTT BLVD.",
			"longitude": -121.980889,
			"latitude": 37.380471,
			"company": "COMMODORE company MACHINES"
		},
		"type": "Feature",
		"geometry": {
			"type": "Point",
			"coordinates": [-121.980889, 37.380471]
		}
	}, {
		"id": "ADVANCED MICRO DEVICES",
		"properties": {
			"zip": 95051,
			"address": "3340 SCOTT BLVD.",
			"longitude": -121.981914,
			"latitude": 37.380387,
			"company": "ADVANCED MICRO DEVICES"
		},
		"type": "Feature",
		"geometry": {
			"type": "Point",
			"coordinates": [-121.981914, 37.380387]
		}
	}, {
		"id": "MACHINE TECHNOLOGY WEST INC.",
		"properties": {
			"zip": 95051,
			"address": "3350 SCOTT BLVD . #1503",
			"longitude": -121.983924,
			"latitude": 37.380462,
			"company": "MACHINE TECHNOLOGY WEST INC."
		},
		"type": "Feature",
		"geometry": {
			"type": "Point",
			"coordinates": [-121.983924, 37.380462]
		}
	}, {
		"id": "BERG ELECTRONICS",
		"properties": {
			"zip": 95051,
			"address": "3375 SCOTT BLVD. #208",
			"longitude": -121.984714,
			"latitude": 37.380594,
			"company": "BERG ELECTRONICS"
		},
		"type": "Feature",
		"geometry": {
			"type": "Point",
			"coordinates": [-121.984714, 37.380594]
		}
	}, {
		"id": "EATON SEMICONDUCTOR",
		"properties": {
			"zip": 95051,
			"address": "3500 GARRETT DR.",
			"longitude": -121.985342,
			"latitude": 37.38221,
			"company": "EATON SEMICONDUCTOR"
		},
		"type": "Feature",
		"geometry": {
			"type": "Point",
			"coordinates": [-121.985342, 37.38221]
		}
	}, {
		"id": "INTEL CORP.",
		"properties": {
			"zip": 95051,
			"address": "3200 LAKESIDE DR.",
			"longitude": -121.984329,
			"latitude": 37.387412,
			"company": "INTEL CORP."
		},
		"type": "Feature",
		"geometry": {
			"type": "Point",
			"coordinates": [-121.984329, 37.387412]
		}
	}, {
		"id": "INTEL CORP .",
		"properties": {
			"zip": 95051,
			"address": "3000 OAKMEAD VILLAGE CT.",
			"longitude": -121.980068,
			"latitude": 37.375961,
			"company": "INTEL CORP ."
		},
		"type": "Feature",
		"geometry": {
			"type": "Point",
			"coordinates": [-121.9801, 37.3756]
		}
	}, {
		"id": "INTEL CORP.",
		"properties": {
			"zip": 95051,
			"address": "3150 CENTRAL EXP.",
			"longitude": -121.985442,
			"latitude": 37.377607,
			"company": "INTEL CORP."
		},
		"type": "Feature",
		"geometry": {
			"type": "Point",
			"coordinates": [-121.985442, 37.377607]
		}
	}, {
		"id": "SIGNETICS CORP.",
		"properties": {
			"zip": 95051,
			"address": "1380 KIFER RD.",
			"longitude": -121.977829,
			"latitude": 37.37412,
			"company": "SIGNETICS CORP."
		},
		"type": "Feature",
		"geometry": {
			"type": "Point",
			"coordinates": [-121.977829, 37.37412]
		}
	}, {
		"id": "SIGNETICS CORP.",
		"properties": {
			"zip": 95051,
			"address": "3600 PETERSON WY.",
			"longitude": -121.98415,
			"latitude": 37.38575,
			"company": "SIGNETICS CORP."
		},
		"type": "Feature",
		"geometry": {
			"type": "Point",
			"coordinates": [-121.98415, 37.38575]
		}
	}, {
		"id": "MEMOREX CORP.",
		"properties": {
			"zip": 95051,
			"address": "2800 BOWERS AVE.",
			"longitude": -121.977402,
			"latitude": 37.372108,
			"company": "MEMOREX CORP."
		},
		"type": "Feature",
		"geometry": {
			"type": "Point",
			"coordinates": [-121.977402, 37.372108]
		}
	}, {
		"id": "DIGITAL EQUIPMENT CORP.",
		"properties": {
			"zip": 95051,
			"address": "2525 AUGUSTINE DR.",
			"longitude": -121.973496,
			"latitude": 37.382366,
			"company": "DIGITAL EQUIPMENT CORP."
		},
		"type": "Feature",
		"geometry": {
			"type": "Point",
			"coordinates": [-121.973496, 37.382366]
		}
	}, {
		"id": "ISD",
		"properties": {
			"zip": 95051,
			"address": "3205 CORONADO DR.",
			"longitude": -121.974475,
			"latitude": 37.378558,
			"company": "ISD"
		},
		"type": "Feature",
		"geometry": {
			"type": "Point",
			"coordinates": [-121.974475, 37.378558]
		}
	}, {
		"id": "WANG LABORATORIES",
		"properties": {
			"zip": 95051,
			"address": "3255-3D SCOTT BLVD.",
			"longitude": -121.983478,
			"latitude": 37.346518,
			"company": "WANG LABORATORIES"
		},
		"type": "Feature",
		"geometry": {
			"type": "Point",
			"coordinates": [-121.983478, 37.346518]
		}
	}, {
		"id": "INTERSIL INC.",
		"properties": {
			"zip": 95051,
			"address": "3250 SCOTT BLVD.",
			"longitude": -121.971968,
			"latitude": 37.379667,
			"company": "INTERSIL INC."
		},
		"type": "Feature",
		"geometry": {
			"type": "Point",
			"coordinates": [-121.971968, 37.379667]
		}
	}, {
		"id": "DOHRMANN-ENVIROTECH",
		"properties": {
			"zip": 95051,
			"address": "3240 SCOTT BLVD.",
			"longitude": -121.970644,
			"latitude": 37.379431,
			"company": "DOHRMANN-ENVIROTECH"
		},
		"type": "Feature",
		"geometry": {
			"type": "Point",
			"coordinates": [-121.970644, 37.379431]
		}
	}, {
		"id": "ULTRATECH CORP./PHOTOMASK",
		"properties": {
			"zip": 95051,
			"address": "2970 CORONADO DR.",
			"longitude": -121.972561,
			"latitude": 37.37622,
			"company": "ULTRATECH CORP./PHOTOMASK"
		},
		"type": "Feature",
		"geometry": {
			"type": "Point",
			"coordinates": [-121.972561, 37.37622]
		}
	}, {
		"id": "RICOH OF AMERICA",
		"properties": {
			"zip": 95051,
			"address": "2972 STENDER WY.",
			"longitude": -121.97018,
			"latitude": 37.376405,
			"company": "RICOH OF AMERICA"
		},
		"type": "Feature",
		"geometry": {
			"type": "Point",
			"coordinates": [-121.97018, 37.376405]
		}
	}, {
		"id": "RAPICOM INC.",
		"properties": {
			"zip": 95051,
			"address": "2972 STENDER SY.",
			"longitude": -121.983486,
			"latitude": 37.346526,
			"company": "RAPICOM INC."
		},
		"type": "Feature",
		"geometry": {
			"type": "Point",
			"coordinates": [-121.983486, 37.346526]
		}
	}, {
		"id": "GENRAD INC.",
		"properties": {
			"zip": 95051,
			"address": "2855 BOWERS AVE.",
			"longitude": -121.977604,
			"latitude": 37.373101,
			"company": "GENRAD INC."
		},
		"type": "Feature",
		"geometry": {
			"type": "Point",
			"coordinates": [-121.977604, 37.373101]
		}
	}, {
		"id": "TANDEM COMPUTERS INC.",
		"properties": {
			"zip": 95051,
			"address": "2450 WALSH AVE.",
			"longitude": -121.971037,
			"latitude": 37.37008,
			"company": "TANDEM COMPUTERS INC."
		},
		"type": "Feature",
		"geometry": {
			"type": "Point",
			"coordinates": [-121.971037, 37.37008]
		}
	}, {
		"id": "TANDEM COMPUTERS INC.",
		"properties": {
			"zip": 95051,
			"address": "3301 OLCOTT ST.",
			"longitude": -121.966952,
			"latitude": 37.380314,
			"company": "TANDEM COMPUTERS INC."
		},
		"type": "Feature",
		"geometry": {
			"type": "Point",
			"coordinates": [-121.966952, 37.380314]
		}
	}, {
		"id": "PRINTEX CORP.",
		"properties": {
			"zip": 95051,
			"address": "2501 WALSH AVE.",
			"longitude": -121.973723,
			"latitude": 37.371288,
			"company": "PRINTEX CORP."
		},
		"type": "Feature",
		"geometry": {
			"type": "Point",
			"coordinates": [-121.973723, 37.371288]
		}
	}, {
		"id": "D.M.C.",
		"properties": {
			"zip": 95051,
			"address": "2300 OWEN ST.",
			"longitude": -121.966473,
			"latitude": 37.376075,
			"company": "D.M.C."
		},
		"type": "Feature",
		"geometry": {
			"type": "Point",
			"coordinates": [-121.966473, 37.376075]
		}
	}, {
		"id": "SIERRACIN",
		"properties": {
			"zip": 95051,
			"address": "3010 OLCOTT ST.",
			"longitude": -121.96733,
			"latitude": 37.376503,
			"company": "SIERRACIN"
		},
		"type": "Feature",
		"geometry": {
			"type": "Point",
			"coordinates": [-121.96733, 37.376503]
		}
	}, {
		"id": "APPLIED MATERIALS INC.",
		"properties": {
			"zip": 95051,
			"address": "2727 AUGUSTINE DR.",
			"longitude": -121.976213,
			"latitude": 37.382354,
			"company": "APPLIED MATERIALS INC."
		},
		"type": "Feature",
		"geometry": {
			"type": "Point",
			"coordinates": [-121.978512, 37.377631]
		}
	}, {
		"id": "INTEL CORP.",
		"properties": {
			"zip": 95051,
			"address": "2880 NORTHWESTERN PKW.",
			"longitude": -121.972041,
			"latitude": 37.373432,
			"company": "INTEL CORP."
		},
		"type": "Feature",
		"geometry": {
			"type": "Point",
			"coordinates": [-121.9717, 37.3737]
		}
	}, {
		"id": "VARIAN ASSOCIATES",
		"properties": {
			"zip": 95051,
			"address": "3251 OLCOTT ST.",
			"longitude": -121.967275,
			"latitude": 37.379651,
			"company": "VARIAN ASSOCIATES"
		},
		"type": "Feature",
		"geometry": {
			"type": "Point",
			"coordinates": [-121.967275, 37.379651]
		}
	}, {
		"id": "GOULD INC.",
		"properties": {
			"zip": 95051,
			"address": "3211-7A SCOTT BLVD.",
			"longitude": -121.983478,
			"latitude": 37.346518,
			"company": "GOULD INC."
		},
		"type": "Feature",
		"geometry": {
			"type": "Point",
			"coordinates": [-121.983478, 37.346518]
		}
	}, {
		"id": "AMDAHL",
		"properties": {
			"zip": 95050,
			"address": "2200 LAWSON LN.",
			"longitude": -121.963261,
			"latitude": 37.375198,
			"company": "AMDAHL"
		},
		"type": "Feature",
		"geometry": {
			"type": "Point",
			"coordinates": [-121.963261, 37.375198]
		}
	}, {
		"id": "SIGNETICS CORP.",
		"properties": {
			"zip": 95050,
			"address": "2251 LAWSON LN.",
			"longitude": -121.963634,
			"latitude": 37.37603,
			"company": "SIGNETICS CORP."
		},
		"type": "Feature",
		"geometry": {
			"type": "Point",
			"coordinates": [-121.963634, 37.37603]
		}
	}, {
		"id": "MICRO POWER SYSTEMS",
		"properties": {
			"zip": 95051,
			"address": "3100 ALFRED ST.",
			"longitude": -121.958607,
			"latitude": 37.378248,
			"company": "MICRO POWER SYSTEMS"
		},
		"type": "Feature",
		"geometry": {
			"type": "Point",
			"coordinates": [-121.958607, 37.378248]
		}
	}, {
		"id": "A.M. INTL. INC.",
		"properties": {
			"zip": 95051,
			"address": "1900 DUANE AVE.",
			"longitude": -121.959755,
			"latitude": 37.380483,
			"company": "A.M. INTL. INC."
		},
		"type": "Feature",
		"geometry": {
			"type": "Point",
			"coordinates": [-121.959755, 37.380483]
		}
	}, {
		"id": "FAIRCHILD-CMOS/LIC",
		"properties": {
			"zip": 95051,
			"address": "3105 ALFRED ST.",
			"longitude": -121.958591,
			"latitude": 37.378312,
			"company": "FAIRCHILD-CMOS/LIC"
		},
		"type": "Feature",
		"geometry": {
			"type": "Point",
			"coordinates": [-121.958591, 37.378312]
		}
	}, {
		"id": "MONOSIL",
		"properties": {
			"zip": 95051,
			"address": "975 COMSTOCK ST.",
			"longitude": -121.951259,
			"latitude": 37.37483,
			"company": "MONOSIL"
		},
		"type": "Feature",
		"geometry": {
			"type": "Point",
			"coordinates": [-121.951259, 37.37483]
		}
	}, {
		"id": "ARTRONIK CIRCUITS INC.",
		"properties": {
			"zip": 95050,
			"address": "2750 SCOTT BLVD .",
			"longitude": -121.959533,
			"latitude": 37.369921,
			"company": "ARTRONIK CIRCUITS INC."
		},
		"type": "Feature",
		"geometry": {
			"type": "Point",
			"coordinates": [-121.959533, 37.369921]
		}
	}, {
		"id": "MEMOREX CORP.",
		"properties": {
			"zip": 95050,
			"address": "2054 MARTIN AVE",
			"longitude": -121.960833,
			"latitude": 37.366247,
			"company": "MEMOREX CORP."
		},
		"type": "Feature",
		"geometry": {
			"type": "Point",
			"coordinates": [-121.960833, 37.366247]
		}
	}, {
		"id": "KULICKE \u0026. SOFFA IND.",
		"properties": {
			"zip": 95050,
			"address": "2210 MARTIN AVE .",
			"longitude": -121.963426,
			"latitude": 37.366911,
			"company": "KULICKE \u0026. SOFFA IND."
		},
		"type": "Feature",
		"geometry": {
			"type": "Point",
			"coordinates": [-121.963426, 37.366911]
		}
	}, {
		"id": "FOUR PHASE SYSTEMS INC.",
		"properties": {
			"zip": 95050,
			"address": "2200 MARTH; AVE.",
			"longitude": -121.948812,
			"latitude": 37.345983,
			"company": "FOUR PHASE SYSTEMS INC."
		},
		"type": "Feature",
		"geometry": {
			"type": "Point",
			"coordinates": [-121.948812, 37.345983]
		}
	}, {
		"id": "INTECH INC.",
		"properties": {
			"zip": 95050,
			"address": "2270 MARTIN AVE.",
			"longitude": -121.963425,
			"latitude": 37.367266,
			"company": "INTECH INC."
		},
		"type": "Feature",
		"geometry": {
			"type": "Point",
			"coordinates": [-121.963425, 37.367266]
		}
	}, {
		"id": "VARIAN ASSOCIATES",
		"properties": {
			"zip": 95050,
			"address": "3101 SCOTT BLVD .",
			"longitude": -121.961966,
			"latitude": 37.377448,
			"company": "VARIAN ASSOCIATES"
		},
		"type": "Feature",
		"geometry": {
			"type": "Point",
			"coordinates": [-121.961966, 37.377448]
		}
	}, {
		"id": "GENERAL DEVICES INC.",
		"properties": {
			"zip": 95050,
			"address": "2355 DE LaCRUZ BLVD.",
			"longitude": -121.941451,
			"latitude": 37.364151,
			"company": "GENERAL DEVICES INC."
		},
		"type": "Feature",
		"geometry": {
			"type": "Point",
			"coordinates": [-121.941451, 37.364151]
		}
	}, {
		"id": "STANFORD APPLIED ENG.",
		"properties": {
			"zip": 95050,
			"address": "340 MARTIN AVE.",
			"longitude": -121.937912,
			"latitude": 37.363015,
			"company": "STANFORD APPLIED ENG."
		},
		"type": "Feature",
		"geometry": {
			"type": "Point",
			"coordinates": [-121.937912, 37.363015]
		}
	}, {
		"id": "F.M.C. CORP.",
		"properties": {
			"zip": 95050,
			"address": "1185 COLEMAN AVE.",
			"longitude": -121.932819,
			"latitude": 37.35675,
			"company": "F.M.C. CORP."
		},
		"type": "Feature",
		"geometry": {
			"type": "Point",
			"coordinates": [-121.932819, 37.35675]
		}
	}, {
		"id": "COMMODORE company MACHINES",
		"properties": {
			"zip": 95050,
			"address": "390 REED ST.",
			"longitude": -121.938351,
			"latitude": 37.360933,
			"company": "COMMODORE company MACHINES"
		},
		"type": "Feature",
		"geometry": {
			"type": "Point",
			"coordinates": [-121.938351, 37.360933]
		}
	}, {
		"id": "MEMOREX CORP.",
		"properties": {
			"zip": 95050,
			"address": "1040 DI GULLO AVE.",
			"longitude": -121.948812,
			"latitude": 37.345983,
			"company": "MEMOREX CORP."
		},
		"type": "Feature",
		"geometry": {
			"type": "Point",
			"coordinates": [-121.948812, 37.345983]
		}
	}, {
		"id": "MEMOREX CORP.",
		"properties": {
			"zip": 95050,
			"address": "1200 MEMOREX DR. (95052)",
			"longitude": -121.954093,
			"latitude": 37.362532,
			"company": "MEMOREX CORP."
		},
		"type": "Feature",
		"geometry": {
			"type": "Point",
			"coordinates": [-121.954093, 37.362532]
		}
	}, {
		"id": "MEMOREX CORP.",
		"properties": {
			"zip": 95050,
			"address": "1200 MEMOREX DR. (95052)",
			"longitude": -121.954093,
			"latitude": 37.362532,
			"company": "MEMOREX CORP."
		},
		"type": "Feature",
		"geometry": {
			"type": "Point",
			"coordinates": [-121.954093, 37.362532]
		}
	}, {
		"id": "MEMOREX CORP.",
		"properties": {
			"zip": 95050,
			"address": "1200 MEMOREX DR . (95052)",
			"longitude": -121.954093,
			"latitude": 37.362532,
			"company": "MEMOREX CORP."
		},
		"type": "Feature",
		"geometry": {
			"type": "Point",
			"coordinates": [-121.954093, 37.362532]
		}
	}, {
		"id": "NATIONAL CSS INC.",
		"properties": {
			"zip": 95051,
			"address": "1333 LAWRENCE EXP. #350",
			"longitude": -121.995899,
			"latitude": 37.349318,
			"company": "NATIONAL CSS INC."
		},
		"type": "Feature",
		"geometry": {
			"type": "Point",
			"coordinates": [-121.995899, 37.349318]
		}
	}, {
		"id": "HEWLETT PACKARD\u2026GENERAL SYSTEMS",
		"properties": {
			"zip": 95050,
			"address": "5303 STEVENS CREEK BLVD.",
			"longitude": -121.996871,
			"latitude": 37.323076,
			"company": "HEWLETT PACKARD\u2026GENERAL SYSTEMS"
		},
		"type": "Feature",
		"geometry": {
			"type": "Point",
			"coordinates": [-121.996871, 37.323076]
		}
	}, {
		"id": "S.R.D. LABS INC.",
		"properties": {
			"zip": 95008,
			"address": "381 McGLINCEY LANE",
			"longitude": -121.942492,
			"latitude": 37.276481,
			"company": "S.R.D. LABS INC."
		},
		"type": "Feature",
		"geometry": {
			"type": "Point",
			"coordinates": [-121.942492, 37.276481]
		}
	}, {
		"id": "SNOWDEN-PENSER/PARK DAVIS CO.",
		"properties": {
			"zip": 95008,
			"address": "1587 DELL AVE.",
			"longitude": -121.956695,
			"latitude": 37.263754,
			"company": "SNOWDEN-PENSER/PARK DAVIS CO."
		},
		"type": "Feature",
		"geometry": {
			"type": "Point",
			"coordinates": [-121.956695, 37.263754]
		}
	}, {
		"id": "G.S. TEMPRESS",
		"properties": {
			"zip": 95008,
			"address": "1510 DELL AVE.",
			"longitude": -121.956119,
			"latitude": 37.264462,
			"company": "G.S. TEMPRESS"
		},
		"type": "Feature",
		"geometry": {
			"type": "Point",
			"coordinates": [-121.956119, 37.264462]
		}
	}, {
		"id": "KENNEDY",
		"properties": {
			"zip": 95030,
			"address": "151 ALBRIGHT WAY",
			"longitude": -121.963216,
			"latitude": 37.2574,
			"company": "KENNEDY"
		},
		"type": "Feature",
		"geometry": {
			"type": "Point",
			"coordinates": [-121.963216, 37.2574]
		}
	}, {
		"id": "RAYTEK INC.",
		"properties": {
			"zip": 95030,
			"address": "1201 SHAFFER RD.",
			"longitude": -121.982566,
			"latitude": 37.230053,
			"company": "RAYTEK INC."
		},
		"type": "Feature",
		"geometry": {
			"type": "Point",
			"coordinates": [-121.982566, 37.230053]
		}
	}, {
		"id": "HEWLETT PACKARD",
		"properties": {
			"zip": 95134,
			"address": "350 W. TRIMBLE RD.",
			"longitude": -121.933456,
			"latitude": 37.3833,
			"company": "HEWLETT PACKARD"
		},
		"type": "Feature",
		"geometry": {
			"type": "Point",
			"coordinates": [-121.933456, 37.3833]
		}
	}, {
		"id": "WATKINS-JOHNSON CO.",
		"properties": {
			"zip": 95131,
			"address": "2525 N. 1ST ST.",
			"longitude": -121.926143,
			"latitude": 37.383645,
			"company": "WATKINS-JOHNSON CO."
		},
		"type": "Feature",
		"geometry": {
			"type": "Point",
			"coordinates": [-121.926143, 37.383645]
		}
	}, {
		"id": "KAISER ELECTRONICS",
		"properties": {
			"zip": 95134,
			"address": "2701 ORCHARD PKWY.",
			"longitude": -121.933014,
			"latitude": 37.38619,
			"company": "KAISER ELECTRONICS"
		},
		"type": "Feature",
		"geometry": {
			"type": "Point",
			"coordinates": [-121.933014, 37.38619]
		}
	}, {
		"id": "BENSON INC.",
		"properties": {
			"zip": 95134,
			"address": "2694 ORCHARD PKWY.",
			"longitude": -121.93286,
			"latitude": 37.386173,
			"company": "BENSON INC."
		},
		"type": "Feature",
		"geometry": {
			"type": "Point",
			"coordinates": [-121.93286, 37.386173]
		}
	}, {
		"id": "APPLE COMPUTER",
		"properties": {
			"zip": 95134,
			"address": "2720 ORCHARD PKWY.",
			"longitude": -121.933015,
			"latitude": 37.386567,
			"company": "APPLE COMPUTER"
		},
		"type": "Feature",
		"geometry": {
			"type": "Point",
			"coordinates": [-121.933015, 37.386567]
		}
	}, {
		"id": "APPLE COMPUTER",
		"properties": {
			"zip": 95131,
			"address": "3073 N. 1ST ST.",
			"longitude": -121.935406,
			"latitude": 37.396149,
			"company": "APPLE COMPUTER"
		},
		"type": "Feature",
		"geometry": {
			"type": "Point",
			"coordinates": [-121.935406, 37.396149]
		}
	}, {
		"id": "RAPICOM",
		"properties": {
			"zip": 95134,
			"address": "3001 ORCHARD PKWY.",
			"longitude": -121.937463,
			"latitude": 37.392214,
			"company": "RAPICOM"
		},
		"type": "Feature",
		"geometry": {
			"type": "Point",
			"coordinates": [-121.937463, 37.392214]
		}
	}, {
		"id": "LOCKHEED",
		"properties": {
			"zip": 95134,
			"address": "PLUMERIA DR. BLDG. 513",
			"longitude": -121.92971,
			"latitude": 37.392179,
			"company": "LOCKHEED"
		},
		"type": "Feature",
		"geometry": {
			"type": "Point",
			"coordinates": [-121.92971, 37.392179]
		}
	}, {
		"id": "ATARI",
		"properties": {
			"zip": 95131,
			"address": "2710 N. 1ST ST.",
			"longitude": -121.929896,
			"latitude": 37.389031,
			"company": "ATARI"
		},
		"type": "Feature",
		"geometry": {
			"type": "Point",
			"coordinates": [-121.929896, 37.389031]
		}
	}, {
		"id": "ACCUTEST",
		"properties": {
			"zip": 95131,
			"address": "2680 N. 1ST ST.",
			"longitude": -121.929417,
			"latitude": 37.388396,
			"company": "ACCUTEST"
		},
		"type": "Feature",
		"geometry": {
			"type": "Point",
			"coordinates": [-121.929417, 37.388396]
		}
	}, {
		"id": "ROLM CORP.",
		"properties": {
			"zip": 95134,
			"address": "1 RIVER OAKS PLACE",
			"longitude": -121.941346,
			"latitude": 37.401171,
			"company": "ROLM CORP."
		},
		"type": "Feature",
		"geometry": {
			"type": "Point",
			"coordinates": [-121.941346, 37.401171]
		}
	}, {
		"id": "FAIRCHILD BIPOLAR DIV.",
		"properties": {
			"zip": 95035,
			"address": "1801 McCARTHY BLVD.",
			"longitude": -121.914706,
			"latitude": 37.401472,
			"company": "FAIRCHILD BIPOLAR DIV."
		},
		"type": "Feature",
		"geometry": {
			"type": "Point",
			"coordinates": [-121.914706, 37.401472]
		}
	}, {
		"id": "HARRIS MICROWAVE",
		"properties": {
			"zip": 95035,
			"address": "1530 McCARTHY BLVD.",
			"longitude": -121.920133,
			"latitude": 37.4077,
			"company": "HARRIS MICROWAVE"
		},
		"type": "Feature",
		"geometry": {
			"type": "Point",
			"coordinates": [-121.920133, 37.4077]
		}
	}, {
		"id": "DIASONICS",
		"properties": {
			"zip": 95035,
			"address": "1545 BARBER LANE",
			"longitude": -121.9108,
			"latitude": 37.407716,
			"company": "DIASONICS"
		},
		"type": "Feature",
		"geometry": {
			"type": "Point",
			"coordinates": [-121.9108, 37.407716]
		}
	}, {
		"id": "AVANTEK INC.",
		"properties": {
			"zip": 95035,
			"address": "481 COTTONWOOD DR.",
			"longitude": -121.912029,
			"latitude": 37.40535,
			"company": "AVANTEK INC."
		},
		"type": "Feature",
		"geometry": {
			"type": "Point",
			"coordinates": [-121.912029, 37.40535]
		}
	}, {
		"id": "ATARI",
		"properties": {
			"zip": 95035,
			"address": "790 SYCAMORE DR .",
			"longitude": -121.919173,
			"latitude": 37.40761,
			"company": "ATARI"
		},
		"type": "Feature",
		"geometry": {
			"type": "Point",
			"coordinates": [-121.919173, 37.40761]
		}
	}, {
		"id": "ATARI",
		"properties": {
			"zip": 95035,
			"address": "715 SYCAMORE DR.",
			"longitude": -121.916618,
			"latitude": 37.408677,
			"company": "ATARI"
		},
		"type": "Feature",
		"geometry": {
			"type": "Point",
			"coordinates": [-121.916618, 37.408677]
		}
	}, {
		"id": "DATA PRODUCTS",
		"properties": {
			"zip": 95131,
			"address": "2550 ZANKER RD.",
			"longitude": -121.923462,
			"latitude": 37.387611,
			"company": "DATA PRODUCTS"
		},
		"type": "Feature",
		"geometry": {
			"type": "Point",
			"coordinates": [-121.923462, 37.387611]
		}
	}, {
		"id": "THOR ELECTRONICS",
		"properties": {
			"zip": 95131,
			"address": "430 TRIMBLE RD.",
			"longitude": -121.922108,
			"latitude": 37.390039,
			"company": "THOR ELECTRONICS"
		},
		"type": "Feature",
		"geometry": {
			"type": "Point",
			"coordinates": [-121.922108, 37.390039]
		}
	}, {
		"id": "TAB PRODUCTS",
		"properties": {
			"zip": 95131,
			"address": "2390 ZANKER RD.",
			"longitude": -121.922028,
			"latitude": 37.386359,
			"company": "TAB PRODUCTS"
		},
		"type": "Feature",
		"geometry": {
			"type": "Point",
			"coordinates": [-121.922028, 37.386359]
		}
	}, {
		"id": "FMC CORP.",
		"properties": {
			"zip": 95131,
			"address": "245 CHARCOT AVE.",
			"longitude": -121.918085,
			"latitude": 37.380458,
			"company": "FMC CORP."
		},
		"type": "Feature",
		"geometry": {
			"type": "Point",
			"coordinates": [-121.918085, 37.380458]
		}
	}, {
		"id": "INTEL CORP.",
		"properties": {
			"zip": 95112,
			"address": "1766 JUNCTION AVE.",
			"longitude": -121.906532,
			"latitude": 37.377319,
			"company": "INTEL CORP."
		},
		"type": "Feature",
		"geometry": {
			"type": "Point",
			"coordinates": [-121.906532, 37.377319]
		}
	}, {
		"id": "FMC CORP.",
		"properties": {
			"zip": 95112,
			"address": "1830 BERING DR.",
			"longitude": -121.911912,
			"latitude": 37.373148,
			"company": "FMC CORP."
		},
		"type": "Feature",
		"geometry": {
			"type": "Point",
			"coordinates": [-121.911912, 37.373148]
		}
	}, {
		"id": "SOLECTRON CORP.",
		"properties": {
			"zip": 95131,
			"address": "2001 FORTUNE DR.",
			"longitude": -121.893318,
			"latitude": 37.401043,
			"company": "SOLECTRON CORP."
		},
		"type": "Feature",
		"geometry": {
			"type": "Point",
			"coordinates": [-121.893318, 37.401043]
		}
	}, {
		"id": "GOULD DeA ZA IM\u2026 \u0026 GRAPHICS",
		"properties": {
			"zip": 95131,
			"address": "1870 LUNDY AVE.",
			"longitude": -121.889915,
			"latitude": 37.392046,
			"company": "GOULD DeA ZA IM\u2026 \u0026 GRAPHICS"
		},
		"type": "Feature",
		"geometry": {
			"type": "Point",
			"coordinates": [-121.889915, 37.392046]
		}
	}, {
		"id": "FEDERAL PACIFIC ELEC. CO.",
		"properties": {
			"zip": 95035,
			"address": "1200 PIPER DR .",
			"longitude": -121.891463,
			"latitude": 37.411462,
			"company": "FEDERAL PACIFIC ELEC. CO."
		},
		"type": "Feature",
		"geometry": {
			"type": "Point",
			"coordinates": [-121.891463, 37.411462]
		}
	}, {
		"id": "ACTIVISION",
		"properties": {
			"zip": 95035,
			"address": "240 MILPITAS BLVD.",
			"longitude": -121.897037,
			"latitude": 37.429291,
			"company": "ACTIVISION"
		},
		"type": "Feature",
		"geometry": {
			"type": "Point",
			"coordinates": [-121.897037, 37.429291]
		}
	}, {
		"id": "FMC CORP.",
		"properties": {
			"zip": 95110,
			"address": "1115 COLEMAN AVE.",
			"longitude": -121.923709,
			"latitude": 37.352274,
			"company": "FMC CORP."
		},
		"type": "Feature",
		"geometry": {
			"type": "Point",
			"coordinates": [-121.923709, 37.352274]
		}
	}, {
		"id": "CDI CORP.",
		"properties": {
			"zip": 95110,
			"address": "50 W. BROKAW RD.",
			"longitude": -121.901914,
			"latitude": 37.338251,
			"company": "CDI CORP."
		},
		"type": "Feature",
		"geometry": {
			"type": "Point",
			"coordinates": [-121.901914, 37.338251]
		}
	}, {
		"id": "THOMAS AND BETTS CO.",
		"properties": {
			"zip": 95110,
			"address": "1762 TECHNOLOGY DR.",
			"longitude": -121.919839,
			"latitude": 37.369073,
			"company": "THOMAS AND BETTS CO."
		},
		"type": "Feature",
		"geometry": {
			"type": "Point",
			"coordinates": [-121.919839, 37.369073]
		}
	}, {
		"id": "MOSTEK CORP.",
		"properties": {
			"zip": 95110,
			"address": "1762 TECHNOLOGY DR. #126",
			"longitude": -121.919839,
			"latitude": 37.369073,
			"company": "MOSTEK CORP."
		},
		"type": "Feature",
		"geometry": {
			"type": "Point",
			"coordinates": [-121.919839, 37.369073]
		}
	}, {
		"id": "MOORE SYSTEMS INC.",
		"properties": {
			"zip": 95110,
			"address": "1730 TECHNOLOGY DR.",
			"longitude": -121.917374,
			"latitude": 37.365735,
			"company": "MOORE SYSTEMS INC."
		},
		"type": "Feature",
		"geometry": {
			"type": "Point",
			"coordinates": [-121.917374, 37.365735]
		}
	}, {
		"id": "FAIRCHILD TEST SYS. GROUP",
		"properties": {
			"zip": 95110,
			"address": "1725 TECHNOLOGY DR.",
			"longitude": -121.916893,
			"latitude": 37.365079,
			"company": "FAIRCHILD TEST SYS. GROUP"
		},
		"type": "Feature",
		"geometry": {
			"type": "Point",
			"coordinates": [-121.916893, 37.365079]
		}
	}, {
		"id": "FAIRCHILD CAMER\u2026 AND INSTRUMENT",
		"properties": {
			"zip": 95110,
			"address": "1601 TECHNOLOGY DR.",
			"longitude": -121.91579,
			"latitude": 37.36429,
			"company": "FAIRCHILD CAMER\u2026 AND INSTRUMENT"
		},
		"type": "Feature",
		"geometry": {
			"type": "Point",
			"coordinates": [-121.91579, 37.36429]
		}
	}, {
		"id": "IBM CORP.",
		"properties": {
			"zip": 95110,
			"address": "50 W. BROKAW RD.",
			"longitude": -121.901914,
			"latitude": 37.338251,
			"company": "IBM CORP."
		},
		"type": "Feature",
		"geometry": {
			"type": "Point",
			"coordinates": [-121.901914, 37.338251]
		}
	}, {
		"id": "IBM CORP.",
		"properties": {
			"zip": 95110,
			"address": "40 W. BROKAW RD.",
			"longitude": -121.901914,
			"latitude": 37.338251,
			"company": "IBM CORP."
		},
		"type": "Feature",
		"geometry": {
			"type": "Point",
			"coordinates": [-121.901914, 37.338251]
		}
	}, {
		"id": "CAELUS MEMORIES INC.",
		"properties": {
			"zip": 95133,
			"address": "1015 TIMOTHY DR.",
			"longitude": -121.880721,
			"latitude": 37.363902,
			"company": "CAELUS MEMORIES INC."
		},
		"type": "Feature",
		"geometry": {
			"type": "Point",
			"coordinates": [-121.880721, 37.363902]
		}
	}, {
		"id": "SPERRY UNIVAC",
		"properties": {
			"zip": 95133,
			"address": "967 MABORY RD.",
			"longitude": -121.88084,
			"latitude": 37.362099,
			"company": "SPERRY UNIVAC"
		},
		"type": "Feature",
		"geometry": {
			"type": "Point",
			"coordinates": [-121.88084, 37.362099]
		}
	}, {
		"id": "PURPLE HEARTS VETERANS REHAB.",
		"properties": {
			"zip": 95110,
			"address": "735 COLEMAN AVE.(95110)",
			"longitude": -121.91185,
			"latitude": 37.343191,
			"company": "PURPLE HEARTS VETERANS REHAB."
		},
		"type": "Feature",
		"geometry": {
			"type": "Point",
			"coordinates": [-121.91185, 37.343191]
		}
	}, {
		"id": "WELLS FARGO ALARM SERVICE",
		"properties": {
			"zip": 95110,
			"address": "466 VENDOME ST. (95110",
			"longitude": -121.903391,
			"latitude": 37.341371,
			"company": "WELLS FARGO ALARM SERVICE"
		},
		"type": "Feature",
		"geometry": {
			"type": "Point",
			"coordinates": [-121.903391, 37.341371]
		}
	}, {
		"id": "HOLIDAY INN",
		"properties": {
			"zip": 95126,
			"address": "282 ALMADEN BLVD.",
			"longitude": -121.891513,
			"latitude": 37.329775,
			"company": "HOLIDAY INN"
		},
		"type": "Feature",
		"geometry": {
			"type": "Point",
			"coordinates": [-121.891513, 37.329775]
		}
	}, {
		"id": "HOTEL SAINTE CLAIRE",
		"properties": {
			"zip": 95126,
			"address": "302 S. MARKET ST.",
			"longitude": -121.88807,
			"latitude": 37.330661,
			"company": "HOTEL SAINTE CLAIRE"
		},
		"type": "Feature",
		"geometry": {
			"type": "Point",
			"coordinates": [-121.88807, 37.330661]
		}
	}, {
		"id": "PLATEAU 7",
		"properties": {
			"zip": 95126,
			"address": "777 N. 1 ST ST.",
			"longitude": -121.884247,
			"latitude": 37.324059,
			"company": "PLATEAU 7"
		},
		"type": "Feature",
		"geometry": {
			"type": "Point",
			"coordinates": [-121.884247, 37.324059]
		}
	}, {
		"id": "PINEHURST INN RESTAURANT",
		"properties": {
			"zip": 95126,
			"address": "1520 THE ALAMEDA",
			"longitude": -121.915388,
			"latitude": 37.334394,
			"company": "PINEHURST INN RESTAURANT"
		},
		"type": "Feature",
		"geometry": {
			"type": "Point",
			"coordinates": [-121.915388, 37.334394]
		}
	}, {
		"id": "INMAC",
		"properties": {
			"zip": 95122,
			"address": "911 McLAUGHLIN AVE.",
			"longitude": -121.856571,
			"latitude": 37.335641,
			"company": "INMAC"
		},
		"type": "Feature",
		"geometry": {
			"type": "Point",
			"coordinates": [-121.856571, 37.335641]
		}
	}, {
		"id": "GENERAL ELECTRIC CO.",
		"properties": {
			"zip": 95112,
			"address": "2155 S. 1ST ST.",
			"longitude": -121.873859,
			"latitude": 37.31644,
			"company": "GENERAL ELECTRIC CO."
		},
		"type": "Feature",
		"geometry": {
			"type": "Point",
			"coordinates": [-121.873859, 37.31644]
		}
	}, {
		"id": "IBM CORP.",
		"properties": {
			"zip": 95119,
			"address": "6331 SAN IGNACIO AVE.",
			"longitude": -121.78142,
			"latitude": 37.237403,
			"company": "IBM CORP."
		},
		"type": "Feature",
		"geometry": {
			"type": "Point",
			"coordinates": [-121.78142, 37.237403]
		}
	}, {
		"id": "IBM CORP.",
		"properties": {
			"zip": 95119,
			"address": "151 MARTINVALE LANE",
			"longitude": -121.778458,
			"latitude": 37.229792,
			"company": "IBM CORP."
		},
		"type": "Feature",
		"geometry": {
			"type": "Point",
			"coordinates": [-121.778458, 37.229792]
		}
	}, {
		"id": "IBM CORP.",
		"properties": {
			"zip": 95119,
			"address": "7071 REALM DR.",
			"longitude": -121.776471,
			"latitude": 37.229188,
			"company": "IBM CORP."
		},
		"type": "Feature",
		"geometry": {
			"type": "Point",
			"coordinates": [-121.776471, 37.229188]
		}
	}, {
		"id": "IBM CORP.",
		"properties": {
			"zip": 95119,
			"address": "6951 VIA DEL ORO",
			"longitude": -121.775542,
			"latitude": 37.2304,
			"company": "IBM CORP."
		},
		"type": "Feature",
		"geometry": {
			"type": "Point",
			"coordinates": [-121.775542, 37.2304]
		}
	}, {
		"id": "EXSIL",
		"properties": {
			"zip": 95119,
			"address": "6540 VIA DEL ORO",
			"longitude": -121.785671,
			"latitude": 37.236466,
			"company": "EXSIL"
		},
		"type": "Feature",
		"geometry": {
			"type": "Point",
			"coordinates": [-121.785671, 37.236466]
		}
	}, {
		"id": "MAGNEX CORP.",
		"properties": {
			"zip": 95119,
			"address": "6541 VIA DEL ORO",
			"longitude": -121.786026,
			"latitude": 37.236653,
			"company": "MAGNEX CORP."
		},
		"type": "Feature",
		"geometry": {
			"type": "Point",
			"coordinates": [-121.786026, 37.236653]
		}
	}, {
		"id": "FAIRCHILD (SEMI\u2026ONDUCTOR BLDG.)",
		"properties": {
			"zip": 95119,
			"address": "101 BERNAL RD.",
			"longitude": -121.773443,
			"latitude": 37.230657,
			"company": "FAIRCHILD (SEMI\u2026ONDUCTOR BLDG.)"
		},
		"type": "Feature",
		"geometry": {
			"type": "Point",
			"coordinates": [-121.7748, 37.2326]
		}
	}],
	"type": "FeatureCollection"
}